{
"type": "FeatureCollection",
"name": "study_area_street_centerlines",
"crs": { "type": "name", "properties": { "name": "urn:ogc:def:crs:OGC:1.3:CRS84" } },
"features": [
{ "type": "Feature", "properties": { "STREETNAME": "OCTAVIA", "STYPE": "ST", "CLASS": "LOCAL" }, "geometry": { "type": "LineString", "coordinates": [ [ -106.48428593066636, 31.769780187608024 ], [ -106.484661769217297, 31.770202918509085 ], [ -106.484927174705987, 31.770509732082427 ] ] } },
{ "type": "Feature", "properties": { "STREETNAME": "CALIFORNIA", "STYPE": "AVE", "CLASS": "LOCAL" }, "geometry": { "type": "LineString", "coordinates": [ [ -106.48826476826541, 31.770632671482648 ], [ -106.487411167026266, 31.771179636465529 ] ] } },
{ "type": "Feature", "properties": { "STREETNAME": "MONTANA", "STYPE": "AVE", "CLASS": "MAJOR" }, "geometry": { "type": "LineString", "coordinates": [ [ -106.48570874142392, 31.767730638032425 ], [ -106.485662629725439, 31.767760351327379 ], [ -106.485571835562141, 31.767816953512295 ], [ -106.485481242729691, 31.767873547911808 ], [ -106.485390827646569, 31.767932886973803 ], [ -106.485301115498658, 31.767992192720914 ], [ -106.485210198522665, 31.768051556284387 ], [ -106.485119581719701, 31.768110903774801 ], [ -106.485029389988142, 31.768167479761217 ], [ -106.48493907441943, 31.768226812866533 ], [ -106.484854325927969, 31.768280379061974 ] ] } },
{ "type": "Feature", "properties": { "STREETNAME": "OCTAVIA", "STYPE": "ST", "CLASS": "LOCAL" }, "geometry": { "type": "LineString", "coordinates": [ [ -106.481752770235218, 31.766921050314902 ], [ -106.482253030894569, 31.767475562160151 ], [ -106.482370048202114, 31.767607688130038 ] ] } },
{ "type": "Feature", "properties": { "STREETNAME": "RIO GRANDE", "STYPE": "AVE", "CLASS": "MINOR" }, "geometry": { "type": "LineString", "coordinates": [ [ -106.485489710627348, 31.769001935893669 ], [ -106.485417780851421, 31.769046634928149 ], [ -106.485327063268841, 31.769105989977394 ], [ -106.485237249721507, 31.769165298588199 ], [ -106.485146231447757, 31.769224666815564 ], [ -106.485055413214894, 31.76928402370563 ], [ -106.484964594985328, 31.769343382331964 ], [ -106.484874000336262, 31.76939997627526 ], [ -106.484782376579346, 31.769459372855419 ], [ -106.484692663723209, 31.769518678998594 ], [ -106.484602446796146, 31.769578007103679 ], [ -106.48451215217429, 31.769634587484536 ], [ -106.484420429937046, 31.769693988440142 ], [ -106.484329733381117, 31.769750585881525 ], [ -106.48428593066636, 31.769780187608024 ] ] } },
{ "type": "Feature", "properties": { "STREETNAME": "NOBLE", "STYPE": "ST", "CLASS": "LOCAL" }, "geometry": { "type": "LineString", "coordinates": [ [ -106.483842858708158, 31.772339532283318 ], [ -106.484018245857229, 31.772537726278291 ], [ -106.484477537459128, 31.773063882144424 ] ] } },
{ "type": "Feature", "properties": { "STREETNAME": "MONTANA", "STYPE": "AVE", "CLASS": "MAJOR" }, "geometry": { "type": "LineString", "coordinates": [ [ -106.477609456332658, 31.772942458098001 ], [ -106.47749830899663, 31.773019289086026 ], [ -106.477408508513236, 31.773075838964466 ], [ -106.477318084552394, 31.773135173150642 ], [ -106.477227281454674, 31.77319177114898 ], [ -106.477136755021903, 31.773251110035737 ], [ -106.47704585045274, 31.773307711783794 ], [ -106.476954219089819, 31.773367102714833 ], [ -106.476863993678421, 31.773426425368832 ], [ -106.476774395992749, 31.773482966993896 ], [ -106.476685676800628, 31.773542220184144 ], [ -106.476596856244868, 31.773601477190926 ], [ -106.476506755423429, 31.773658042373359 ], [ -106.476398711700341, 31.773723711466459 ] ] } },
{ "type": "Feature", "properties": { "STREETNAME": "YANDELL", "STYPE": "DR", "CLASS": "MINOR" }, "geometry": { "type": "LineString", "coordinates": [ [ -106.48506964797302, 31.767009255829162 ], [ -106.4851529668273, 31.766958511967527 ], [ -106.485245065254645, 31.766901847439971 ], [ -106.485336684148592, 31.766842450574618 ], [ -106.485426898020506, 31.76678312189744 ], [ -106.485517891314956, 31.766726506716648 ], [ -106.485607904697858, 31.766667187383401 ], [ -106.485698719968312, 31.766607828246311 ], [ -106.485790036843042, 31.766548445313504 ], [ -106.485881052151584, 31.766489076574054 ], [ -106.485918104763428, 31.76646254750613 ] ] } },
{ "type": "Feature", "properties": { "STREETNAME": "LEE", "STYPE": "ST", "CLASS": "LOCAL" }, "geometry": { "type": "LineString", "coordinates": [ [ -106.477609456332658, 31.772942458098001 ], [ -106.477691578918012, 31.773034939349166 ], [ -106.478157471634987, 31.773571817461914 ], [ -106.478243944108414, 31.773672351381247 ] ] } },
{ "type": "Feature", "properties": { "STREETNAME": "DALLAS", "STYPE": "ST", "CLASS": "LOCAL" }, "geometry": { "type": "LineString", "coordinates": [ [ -106.476398711700341, 31.773723711466459 ], [ -106.476581168354926, 31.773927085344926 ], [ -106.476960987810529, 31.774363413642071 ], [ -106.477037982658331, 31.774445124971464 ] ] } },
{ "type": "Feature", "properties": { "STREETNAME": "NEWMAN", "STYPE": "ST", "CLASS": "LOCAL" }, "geometry": { "type": "LineString", "coordinates": [ [ -106.475562813164927, 31.766315971811025 ], [ -106.47586332531526, 31.766667947814025 ] ] } },
{ "type": "Feature", "properties": { "STREETNAME": "OCTAVIA", "STYPE": "ST", "CLASS": "LOCAL" }, "geometry": { "type": "LineString", "coordinates": [ [ -106.483011187329453, 31.768334493095551 ], [ -106.483420179087219, 31.768799708244497 ], [ -106.483645553879356, 31.769056106401255 ] ] } },
{ "type": "Feature", "properties": { "STREETNAME": "NEWMAN", "STYPE": "ST", "CLASS": "LOCAL" }, "geometry": { "type": "LineString", "coordinates": [ [ -106.478144649714096, 31.769258265459875 ], [ -106.47833385787591, 31.769469580165485 ], [ -106.478672018086968, 31.769858314570897 ], [ -106.478746378215405, 31.769942901627644 ] ] } },
{ "type": "Feature", "properties": { "STREETNAME": "CALIFORNIA", "STYPE": "AVE", "CLASS": "LOCAL" }, "geometry": { "type": "LineString", "coordinates": [ [ -106.482842975950646, 31.774113019345773 ], [ -106.482656083856696, 31.774234734220528 ], [ -106.482126364916269, 31.774581887812808 ], [ -106.481768073292741, 31.774808062180796 ], [ -106.48161202430714, 31.774889772946537 ] ] } },
{ "type": "Feature", "properties": { "STREETNAME": "CALIFORNIA", "STYPE": "AVE", "CLASS": "LOCAL" }, "geometry": { "type": "LineString", "coordinates": [ [ -106.487411167026266, 31.771179636465529 ], [ -106.487266081849782, 31.77127184668397 ], [ -106.486203382522234, 31.771955340095882 ] ] } },
{ "type": "Feature", "properties": { "STREETNAME": "OCTAVIA", "STYPE": "ST", "CLASS": "LOCAL" }, "geometry": { "type": "LineString", "coordinates": [ [ -106.482370048202114, 31.767607688130038 ], [ -106.48280947991347, 31.768104504580126 ], [ -106.483011187329453, 31.768334493095551 ] ] } },
{ "type": "Feature", "properties": { "STREETNAME": "CALIFORNIA", "STYPE": "AVE", "CLASS": "LOCAL" }, "geometry": { "type": "LineString", "coordinates": [ [ -106.489111731709116, 31.770086014444985 ], [ -106.488934437271112, 31.770201776995428 ], [ -106.48826476826541, 31.770632671482648 ] ] } },
{ "type": "Feature", "properties": { "STREETNAME": "LANGTRY", "STYPE": "ST", "CLASS": "LOCAL" }, "geometry": { "type": "LineString", "coordinates": [ [ -106.473708964673364, 31.76637046149029 ], [ -106.473853095254285, 31.766534349401525 ], [ -106.474348219311295, 31.767097393092612 ] ] } },
{ "type": "Feature", "properties": { "STREETNAME": "NOBLE", "STYPE": "ST", "CLASS": "LOCAL" }, "geometry": { "type": "LineString", "coordinates": [ [ -106.481157426289201, 31.768386328048408 ], [ -106.481787724874849, 31.769088872786668 ], [ -106.481810708435177, 31.769112565505861 ] ] } },
{ "type": "Feature", "properties": { "STREETNAME": "ANGE", "STYPE": "ST", "CLASS": "LOCAL" }, "geometry": { "type": "LineString", "coordinates": [ [ -106.484854325927969, 31.768280379061974 ], [ -106.485009511161877, 31.768457501153634 ], [ -106.485489710627348, 31.769001935893669 ] ] } },
{ "type": "Feature", "properties": { "STREETNAME": "RIVER", "STYPE": "AVE", "CLASS": "LOCAL" }, "geometry": { "type": "LineString", "coordinates": [ [ -106.489750627413102, 31.770812893110747 ], [ -106.489075913804427, 31.771246782623937 ], [ -106.488903683476622, 31.771356799953043 ] ] } },
{ "type": "Feature", "properties": { "STREETNAME": "NEWMAN", "STYPE": "ST", "CLASS": "LOCAL" }, "geometry": { "type": "LineString", "coordinates": [ [ -106.478746378215405, 31.769942901627644 ], [ -106.478986886832359, 31.770212358830676 ], [ -106.479316056414163, 31.770584997699732 ], [ -106.47938692503692, 31.770666998064861 ] ] } },
{ "type": "Feature", "properties": { "STREETNAME": "LANGTRY", "STYPE": "ST", "CLASS": "LOCAL" }, "geometry": { "type": "LineString", "coordinates": [ [ -106.477534298637664, 31.770721477758194 ], [ -106.477760534329576, 31.770969586238124 ], [ -106.478125341543063, 31.771376336976886 ], [ -106.478182896178993, 31.771442445417204 ] ] } },
{ "type": "Feature", "properties": { "STREETNAME": "NEVADA", "STYPE": "AVE", "CLASS": "LOCAL" }, "geometry": { "type": "LineString", "coordinates": [ [ -106.485563556058509, 31.771233996465337 ], [ -106.485248039887068, 31.771436130816575 ], [ -106.484294412154995, 31.772048374330819 ], [ -106.483842858708158, 31.772339532283318 ] ] } },
{ "type": "Feature", "properties": { "STREETNAME": "CLIFF", "STYPE": "DR", "CLASS": "MINOR" }, "geometry": { "type": "LineString", "coordinates": [ [ -106.477257434691538, 31.776573938729005 ], [ -106.476872758302761, 31.776319545454335 ], [ -106.476776067212924, 31.776252532481262 ], [ -106.476717661883214, 31.776191967152293 ], [ -106.476629458416767, 31.776094268052638 ], [ -106.476490534701796, 31.775941145891235 ] ] } },
{ "type": "Feature", "properties": { "STREETNAME": "CLIFF", "STYPE": "DR", "CLASS": "MINOR" }, "geometry": { "type": "LineString", "coordinates": [ [ -106.488247571516652, 31.772910336070932 ], [ -106.488196780693443, 31.772959542571844 ], [ -106.488121810245758, 31.773031916380678 ], [ -106.488055932247988, 31.773109370731788 ], [ -106.487999221764071, 31.773194645288253 ], [ -106.487949613693601, 31.773282339624014 ], [ -106.487908420411372, 31.773372391656 ], [ -106.487876340459209, 31.773464762923929 ], [ -106.487859093114551, 31.773523394787578 ] ] } },
{ "type": "Feature", "properties": { "STREETNAME": "DALLAS", "STYPE": "ST", "CLASS": "LOCAL" }, "geometry": { "type": "LineString", "coordinates": [ [ -106.474017616818387, 31.770831948292766 ], [ -106.473990341131838, 31.770849758217544 ], [ -106.473978308745828, 31.770857950701377 ], [ -106.473967736079558, 31.770867956391385 ], [ -106.473958893493105, 31.770879519425996 ], [ -106.473952007105609, 31.770892344119829 ], [ -106.47394725301308, 31.770906102524851 ], [ -106.4739447527853, 31.770920442816536 ], [ -106.473944570357091, 31.770934998290574 ], [ -106.473946710393463, 31.770949396740104 ], [ -106.473951118170234, 31.770963269973631 ], [ -106.47395768097347, 31.770976263230278 ], [ -106.473966230981745, 31.770988044251585 ], [ -106.473976549557605, 31.770998311777909 ], [ -106.474275809345059, 31.77131034339245 ], [ -106.47452670394388, 31.771584822382302 ] ] } },
{ "type": "Feature", "properties": { "STREETNAME": "LEE", "STYPE": "ST", "CLASS": "LOCAL" }, "geometry": { "type": "LineString", "coordinates": [ [ -106.476974329989432, 31.772218097475214 ], [ -106.477063386275304, 31.772321264110168 ], [ -106.477288783470058, 31.772585931712921 ], [ -106.477609456332658, 31.772942458098001 ] ] } },
{ "type": "Feature", "properties": { "STREETNAME": "DALLAS", "STYPE": "ST", "CLASS": "LOCAL" }, "geometry": { "type": "LineString", "coordinates": [ [ -106.477037982658331, 31.774445124971464 ], [ -106.477118948479685, 31.774532154052331 ], [ -106.477398638472323, 31.774857579978296 ], [ -106.477682764320633, 31.775169028427214 ] ] } },
{ "type": "Feature", "properties": { "STREETNAME": "RIO GRANDE", "STYPE": "AVE", "CLASS": "MINOR" }, "geometry": { "type": "LineString", "coordinates": [ [ -106.48428593066636, 31.769780187608024 ], [ -106.484238814116139, 31.769809948725953 ], [ -106.484148921652519, 31.769866508909427 ], [ -106.484058703997462, 31.769925835729239 ], [ -106.483967683263387, 31.769985204065513 ], [ -106.48387688596496, 31.770041805019329 ], [ -106.483784962722822, 31.770101215887866 ], [ -106.483695146218494, 31.770160523461723 ], [ -106.483603623236476, 31.770219914360485 ], [ -106.483512525203295, 31.770276531059721 ], [ -106.483422005472136, 31.770335874383626 ], [ -106.483331586702249, 31.770395211058069 ], [ -106.483240889999337, 31.770451809476697 ], [ -106.483150369814922, 31.770511150806719 ], [ -106.483059348948544, 31.770570517544098 ], [ -106.482967824120266, 31.770629908036277 ], [ -106.482877025727049, 31.770686510079624 ], [ -106.482787109194689, 31.770745824399228 ], [ -106.482696589500947, 31.770805165357157 ], [ -106.482604484833928, 31.770861829846449 ], [ -106.482560481848722, 31.770891440397406 ] ] } },
{ "type": "Feature", "properties": { "STREETNAME": "MONTANA", "STYPE": "AVE", "CLASS": "MAJOR" }, "geometry": { "type": "LineString", "coordinates": [ [ -106.476398711700341, 31.773723711466459 ], [ -106.476324117858169, 31.773774039780243 ], [ -106.476233288655152, 31.773833389560476 ], [ -106.476141982427038, 31.773890009580196 ], [ -106.476051454534911, 31.773949345895147 ], [ -106.475960448626807, 31.774005953399787 ], [ -106.475868818020544, 31.774065343451216 ], [ -106.475778714159475, 31.774121907318602 ], [ -106.475687985595286, 31.774181253733058 ], [ -106.47559725691778, 31.77424060008294 ], [ -106.475507431566314, 31.774299904614377 ], [ -106.475416926643547, 31.77435648623895 ], [ -106.475326399024951, 31.774415823790267 ], [ -106.475236473255507, 31.774475133759346 ], [ -106.475196125250818, 31.774499062790046 ] ] } },
{ "type": "Feature", "properties": { "STREETNAME": "MONTANA", "STYPE": "AVE", "CLASS": "MAJOR" }, "geometry": { "type": "LineString", "coordinates": [ [ -106.481234061613023, 31.770616634479413 ], [ -106.481127527764102, 31.770686612816117 ], [ -106.481037229845128, 31.770743188061207 ], [ -106.480947210977618, 31.770802506791892 ], [ -106.480856187226891, 31.770861869330748 ], [ -106.480765666333554, 31.770921210744632 ], [ -106.480675368034539, 31.77097778663417 ], [ -106.48058454539229, 31.771037141265612 ], [ -106.480493722694916, 31.771096496732913 ], [ -106.480403022461928, 31.771153091408131 ], [ -106.480312601146153, 31.771212427768216 ], [ -106.48022220333344, 31.771269009820205 ], [ -106.480131981954003, 31.771328334787263 ], [ -106.480026878565923, 31.77139111783525 ] ] } },
{ "type": "Feature", "properties": { "STREETNAME": "CIRCLE", "STYPE": "DR", "CLASS": "LOCAL" }, "geometry": { "type": "LineString", "coordinates": [ [ -106.483801902647244, 31.775226753672804 ], [ -106.483811590915224, 31.775256582737356 ], [ -106.48382033680177, 31.775302972418494 ], [ -106.483820443364664, 31.775410339391328 ], [ -106.483820660260406, 31.775889371632051 ], [ -106.483816448498288, 31.776743043883656 ], [ -106.483816750281193, 31.776875178804168 ] ] } },
{ "type": "Feature", "properties": { "STREETNAME": "NOBLE", "STYPE": "ST", "CLASS": "LOCAL" }, "geometry": { "type": "LineString", "coordinates": [ [ -106.481927684974423, 31.770161486737251 ], [ -106.482489685970165, 31.770812193128727 ], [ -106.482560481848722, 31.770891440397406 ] ] } },
{ "type": "Feature", "properties": { "STREETNAME": "MONTANA", "STYPE": "AVE", "CLASS": "MAJOR" }, "geometry": { "type": "LineString", "coordinates": [ [ -106.475196125250818, 31.774499062790046 ], [ -106.475146045378125, 31.774534463752882 ], [ -106.475055417279066, 31.774593805839725 ], [ -106.474965312432829, 31.774650369132566 ], [ -106.474873803442847, 31.774706999551395 ], [ -106.474782897187225, 31.774763599637627 ], [ -106.47469156448642, 31.774822974709497 ], [ -106.474600758211679, 31.77487957083876 ], [ -106.474508923520702, 31.774938969467669 ], [ -106.474417790648047, 31.774998333087343 ], [ -106.474326860170891, 31.775057688888513 ], [ -106.474236554049938, 31.77511425932051 ], [ -106.474147431066285, 31.775173527851798 ], [ -106.474056021227597, 31.775230152957075 ], [ -106.473980845738367, 31.775277753222525 ] ] } },
{ "type": "Feature", "properties": { "STREETNAME": "WYOMING", "STYPE": "AVE", "CLASS": "MINOR" }, "geometry": { "type": "LineString", "coordinates": [ [ -106.483581525321057, 31.76683184391187 ], [ -106.483484504685407, 31.766888739950847 ], [ -106.483394291667096, 31.766948068080652 ], [ -106.483303497045526, 31.767004670502814 ], [ -106.483212377391595, 31.767064042262533 ], [ -106.483121180904547, 31.767120662641318 ], [ -106.48303076512245, 31.767180000982442 ], [ -106.482939669603596, 31.767236616447608 ], [ -106.482849556048663, 31.767295939457892 ], [ -106.482759641653018, 31.767355253887001 ], [ -106.482669525765132, 31.767414576869637 ], [ -106.482579208501249, 31.76747391020637 ], [ -106.482489394898138, 31.767533218760605 ], [ -106.482370048202114, 31.767607688130038 ] ] } },
{ "type": "Feature", "properties": { "STREETNAME": "DALLAS", "STYPE": "ST", "CLASS": "LOCAL" }, "geometry": { "type": "LineString", "coordinates": [ [ -106.47452670394388, 31.771584822382302 ], [ -106.474555440975621, 31.771616504942003 ], [ -106.474622939496271, 31.77169315876667 ], [ -106.474690940869749, 31.771769787915606 ], [ -106.474759569185309, 31.77184363611935 ], [ -106.474828372942355, 31.771920227320248 ], [ -106.474897778931592, 31.77199679366764 ], [ -106.475124180955831, 31.772272427962196 ] ] } },
{ "type": "Feature", "properties": { "STREETNAME": "WYOMING", "STYPE": "AVE", "CLASS": "MINOR" }, "geometry": { "type": "LineString", "coordinates": [ [ -106.478746378215405, 31.769942901627644 ], [ -106.478679186295253, 31.769984620682411 ], [ -106.478587158493426, 31.770044029961873 ], [ -106.478495432157786, 31.770103426734259 ], [ -106.478403427794447, 31.770160081636231 ], [ -106.478312604514727, 31.770219434702103 ], [ -106.478220775592973, 31.770278836106989 ], [ -106.478129348042401, 31.770338216673579 ], [ -106.478038225122049, 31.770397584585613 ], [ -106.477948729019673, 31.77045412245506 ], [ -106.477859110980816, 31.770513417335721 ], [ -106.477768186944303, 31.77057277564424 ], [ -106.477677285429777, 31.770629379693524 ], [ -106.477586057477367, 31.77068875041051 ], [ -106.477534298637664, 31.770721477758194 ] ] } },
{ "type": "Feature", "properties": { "STREETNAME": "WYOMING", "STYPE": "AVE", "CLASS": "MINOR" }, "geometry": { "type": "LineString", "coordinates": [ [ -106.482370048202114, 31.767607688130038 ], [ -106.482308685219181, 31.767649133699379 ], [ -106.482217365111595, 31.767708514165122 ], [ -106.482126265439447, 31.76776512919901 ], [ -106.482035850531091, 31.767824466734673 ], [ -106.481944250026288, 31.767881106205934 ], [ -106.481853130790995, 31.767940476894434 ], [ -106.481762612073737, 31.767999816417507 ], [ -106.481671893149283, 31.768059168043912 ], [ -106.481157426289201, 31.768386328048408 ] ] } },
{ "type": "Feature", "properties": { "STREETNAME": "WYOMING", "STYPE": "AVE", "CLASS": "MINOR" }, "geometry": { "type": "LineString", "coordinates": [ [ -106.476332810394581, 31.771491284606658 ], [ -106.475124180955831, 31.772272427962196 ] ] } },
{ "type": "Feature", "properties": { "STREETNAME": "ANGE", "STYPE": "ST", "CLASS": "LOCAL" }, "geometry": { "type": "LineString", "coordinates": [ [ -106.4842179718664, 31.767556110276931 ], [ -106.484854325927969, 31.768280379061974 ] ] } },
{ "type": "Feature", "properties": { "STREETNAME": "NEVADA", "STYPE": "AVE", "CLASS": "LOCAL" }, "geometry": { "type": "LineString", "coordinates": [ [ -106.487626964288964, 31.76990848755792 ], [ -106.486772441226407, 31.770458245393648 ] ] } },
{ "type": "Feature", "properties": { "STREETNAME": "NEWMAN", "STYPE": "ST", "CLASS": "LOCAL" }, "geometry": { "type": "LineString", "coordinates": [ [ -106.474920617344139, 31.765591936855401 ], [ -106.474941892819118, 31.765615709541532 ], [ -106.475192837397714, 31.765906705447502 ], [ -106.475562813164927, 31.766315971811025 ] ] } },
{ "type": "Feature", "properties": { "STREETNAME": "ANGE", "STYPE": "ST", "CLASS": "LOCAL" }, "geometry": { "type": "LineString", "coordinates": [ [ -106.483581525321057, 31.76683184391187 ], [ -106.483691884098135, 31.766956022389159 ], [ -106.4842179718664, 31.767556110276931 ] ] } },
{ "type": "Feature", "properties": { "STREETNAME": "MONTANA", "STYPE": "AVE", "CLASS": "MAJOR" }, "geometry": { "type": "LineString", "coordinates": [ [ -106.484854325927969, 31.768280379061974 ], [ -106.484758241853697, 31.768345492007864 ], [ -106.484667122818706, 31.768404863804182 ], [ -106.484576405263226, 31.768464216544295 ], [ -106.484486190435334, 31.76852354634449 ], [ -106.484395171136285, 31.768582912310585 ], [ -106.484304677124769, 31.768639502940381 ], [ -106.484214260461599, 31.7686988393666 ], [ -106.484123664867681, 31.768755431951458 ], [ -106.484032645236752, 31.768814799459818 ], [ -106.483941448670805, 31.768871421225057 ], [ -106.483850830352154, 31.768930768714011 ], [ -106.483759109376578, 31.768990168269799 ], [ -106.483645553879356, 31.769056106401255 ] ] } },
{ "type": "Feature", "properties": { "STREETNAME": "MONTANA", "STYPE": "AVE", "CLASS": "MAJOR" }, "geometry": { "type": "LineString", "coordinates": [ [ -106.483645553879356, 31.769056106401255 ], [ -106.48357769436484, 31.769106118196017 ], [ -106.483486573921397, 31.769165490049048 ], [ -106.483395677100603, 31.769222097220904 ], [ -106.483305159296506, 31.769281439537725 ], [ -106.483214339976229, 31.769340796943375 ], [ -106.483123620678356, 31.769400149550133 ], [ -106.483034106002464, 31.769459444232901 ], [ -106.482944389888814, 31.769518748370697 ], [ -106.482854373254881, 31.769578066647231 ], [ -106.482763553369537, 31.769637423731577 ], [ -106.482672454281868, 31.769694039005266 ], [ -106.482581031071263, 31.769753421760772 ], [ -106.482489932934399, 31.769810038655415 ], [ -106.482437339481024, 31.769834549928834 ] ] } },
{ "type": "Feature", "properties": { "STREETNAME": "RIO GRANDE", "STYPE": "AVE", "CLASS": "MINOR" }, "geometry": { "type": "LineString", "coordinates": [ [ -106.481870055573381, 31.77133979940313 ], [ -106.481789187962178, 31.771384919594912 ], [ -106.481698967450853, 31.771444245644993 ], [ -106.481608645751379, 31.771503578215029 ], [ -106.481517946847902, 31.771560173607995 ], [ -106.481426946484078, 31.771616784985955 ], [ -106.481336123700515, 31.771676140126836 ], [ -106.481245123117318, 31.77173275137514 ], [ -106.481153496951478, 31.77179214524795 ], [ -106.481063076433713, 31.771851480263489 ], [ -106.480972174662796, 31.771908087534889 ], [ -106.480880649175205, 31.771967473727774 ], [ -106.480790048655095, 31.772024066622297 ], [ -106.480698822362697, 31.772083439437857 ], [ -106.480664833857944, 31.77211533005044 ] ] } },
{ "type": "Feature", "properties": { "STREETNAME": "ARIZONA", "STYPE": "AVE", "CLASS": "MINOR" }, "geometry": { "type": "LineString", "coordinates": [ [ -106.487831934979923, 31.768635094691383 ], [ -106.48867743232509, 31.768094014077601 ] ] } },
{ "type": "Feature", "properties": { "STREETNAME": "NEVADA", "STYPE": "AVE", "CLASS": "LOCAL" }, "geometry": { "type": "LineString", "coordinates": [ [ -106.481458143936507, 31.77387288002452 ], [ -106.481050703957067, 31.774131658872037 ] ] } },
{ "type": "Feature", "properties": { "STREETNAME": "ARIZONA", "STYPE": "AVE", "CLASS": "MINOR" }, "geometry": { "type": "LineString", "coordinates": [ [ -106.486981943297636, 31.769184640375965 ], [ -106.48719325340582, 31.769045246998108 ], [ -106.487376370287507, 31.768929209494704 ], [ -106.487831934979923, 31.768635094691383 ] ] } },
{ "type": "Feature", "properties": { "STREETNAME": "WRIGHT", "STYPE": "AVE", "CLASS": "LOCAL" }, "geometry": { "type": "LineString", "coordinates": [ [ -106.481458143936507, 31.77387288002452 ], [ -106.481502574084118, 31.773972645833396 ], [ -106.481573190140878, 31.774517180502361 ], [ -106.48160657664296, 31.774821200463428 ], [ -106.48161202430714, 31.774889772946537 ] ] } },
{ "type": "Feature", "properties": { "STREETNAME": "NEWMAN", "STYPE": "ST", "CLASS": "LOCAL" }, "geometry": { "type": "LineString", "coordinates": [ [ -106.480664833857944, 31.77211533005044 ], [ -106.481302073198663, 31.772842325455709 ] ] } },
{ "type": "Feature", "properties": { "STREETNAME": "OCTAVIA", "STYPE": "ST", "CLASS": "LOCAL" }, "geometry": { "type": "LineString", "coordinates": [ [ -106.483645553879356, 31.769056106401255 ], [ -106.484024452295401, 31.769484199683095 ], [ -106.48428593066636, 31.769780187608024 ] ] } },
{ "type": "Feature", "properties": { "STREETNAME": "NOBLE", "STYPE": "ST", "CLASS": "LOCAL" }, "geometry": { "type": "LineString", "coordinates": [ [ -106.480564015786712, 31.767690297527363 ], [ -106.481064753911028, 31.768283335827032 ], [ -106.481157426289201, 31.768386328048408 ] ] } },
{ "type": "Feature", "properties": { "STREETNAME": "RIO GRANDE", "STYPE": "AVE", "CLASS": "MINOR" }, "geometry": { "type": "LineString", "coordinates": [ [ -106.489733451536267, 31.766271011278143 ], [ -106.48968533265915, 31.766300818397827 ], [ -106.48959452005532, 31.76636017852146 ], [ -106.489503707454872, 31.766419540381428 ], [ -106.489412994873433, 31.766478897437654 ], [ -106.489322181929396, 31.766538257367269 ], [ -106.489230187647166, 31.766594922699284 ], [ -106.489139675988525, 31.766654269132911 ], [ -106.489049788372469, 31.766710832819321 ], [ -106.488958773777, 31.766770203818485 ], [ -106.488885398733956, 31.766820479649493 ] ] } },
{ "type": "Feature", "properties": { "STREETNAME": "NEVADA", "STYPE": "AVE", "CLASS": "LOCAL" }, "geometry": { "type": "LineString", "coordinates": [ [ -106.489317740831595, 31.768818075548019 ], [ -106.488474227403898, 31.769361819298869 ] ] } },
{ "type": "Feature", "properties": { "STREETNAME": "OCTAVIA", "STYPE": "ST", "CLASS": "LOCAL" }, "geometry": { "type": "LineString", "coordinates": [ [ -106.487464843793703, 31.773368597539694 ], [ -106.487576645344816, 31.773429383532459 ], [ -106.487678212575346, 31.773465876307363 ], [ -106.487768502520055, 31.77349464133491 ], [ -106.487859093114551, 31.773523394787578 ] ] } },
{ "type": "Feature", "properties": { "STREETNAME": "MONTANA", "STYPE": "AVE", "CLASS": "MAJOR" }, "geometry": { "type": "LineString", "coordinates": [ [ -106.482437339481024, 31.769834549928834 ], [ -106.482398433030923, 31.769866673568838 ], [ -106.482308214457987, 31.769926001877298 ], [ -106.482216512949122, 31.769982645276851 ], [ -106.482125993742656, 31.770041987656803 ], [ -106.482034771241629, 31.770101361404507 ], [ -106.481927684974423, 31.770161486737251 ] ] } },
{ "type": "Feature", "properties": { "STREETNAME": "MISSOURI", "STYPE": "AVE", "CLASS": "LOCAL" }, "geometry": { "type": "LineString", "coordinates": [ [ -106.479344702910822, 31.768474743156141 ], [ -106.479425531417391, 31.768410357016702 ], [ -106.479516529844858, 31.768353746066005 ], [ -106.479608556482944, 31.768294336040633 ], [ -106.479700581893667, 31.768234925098191 ], [ -106.479792683754766, 31.768178264505337 ], [ -106.479883180130358, 31.768121678802189 ], [ -106.479975106063293, 31.768062271443057 ], [ -106.480067231096456, 31.768002854603836 ], [ -106.480159457319502, 31.767943434717296 ], [ -106.480250555055463, 31.767886819411881 ], [ -106.480342779880658, 31.7678273976416 ], [ -106.48043420363274, 31.767768015462629 ], [ -106.48052462159545, 31.767708678938217 ], [ -106.480564015786712, 31.767690297527363 ] ] } },
{ "type": "Feature", "properties": { "STREETNAME": "LANGTRY", "STYPE": "ST", "CLASS": "LOCAL" }, "geometry": { "type": "LineString", "coordinates": [ [ -106.478182896178993, 31.771442445417204 ], [ -106.478253465102398, 31.771524460513032 ], [ -106.478713568320302, 31.772045090588822 ], [ -106.478822645652428, 31.772166583048328 ] ] } },
{ "type": "Feature", "properties": { "STREETNAME": "NEVADA", "STYPE": "AVE", "CLASS": "LOCAL" }, "geometry": { "type": "LineString", "coordinates": [ [ -106.486772441226407, 31.770458245393648 ], [ -106.486345614914711, 31.77073447842232 ], [ -106.485563556058509, 31.771233996465337 ] ] } },
{ "type": "Feature", "properties": { "STREETNAME": "DALLAS", "STYPE": "ST", "CLASS": "LOCAL" }, "geometry": { "type": "LineString", "coordinates": [ [ -106.475764415342795, 31.772996553941546 ], [ -106.475849123400224, 31.773091666403413 ], [ -106.476118177824617, 31.773403830560103 ], [ -106.47633437683595, 31.773652415330069 ], [ -106.476398711700341, 31.773723711466459 ] ] } },
{ "type": "Feature", "properties": { "STREETNAME": "OCTAVIA", "STYPE": "ST", "CLASS": "LOCAL" }, "geometry": { "type": "LineString", "coordinates": [ [ -106.484927174705987, 31.770509732082427 ], [ -106.485337143918173, 31.770980402650025 ], [ -106.485563556058509, 31.771233996465337 ] ] } },
{ "type": "Feature", "properties": { "STREETNAME": "WYOMING", "STYPE": "AVE", "CLASS": "MINOR" }, "geometry": { "type": "LineString", "coordinates": [ [ -106.481157426289201, 31.768386328048408 ], [ -106.480947211508223, 31.768525662260785 ], [ -106.480855610732803, 31.768582300900892 ], [ -106.480765393470051, 31.768641628120374 ], [ -106.480674471927259, 31.768700987651012 ], [ -106.480583450135555, 31.768760351848986 ], [ -106.480492451721076, 31.76881695993443 ], [ -106.480401631146236, 31.768876316289493 ], [ -106.480311010495768, 31.768935659513829 ], [ -106.48022021225556, 31.768992261543008 ], [ -106.480129090761224, 31.769051629198302 ], [ -106.48003816948281, 31.769110988225286 ], [ -106.479960261855283, 31.769161604730385 ] ] } },
{ "type": "Feature", "properties": { "STREETNAME": "NEWMAN", "STYPE": "ST", "CLASS": "LOCAL" }, "geometry": { "type": "LineString", "coordinates": [ [ -106.481302073198663, 31.772842325455709 ], [ -106.481463236182279, 31.773024673427098 ], [ -106.481801145228232, 31.773410662723681 ], [ -106.481931313488673, 31.773566942050476 ] ] } },
{ "type": "Feature", "properties": { "STREETNAME": "NEVADA", "STYPE": "AVE", "CLASS": "LOCAL" }, "geometry": { "type": "LineString", "coordinates": [ [ -106.488474227403898, 31.769361819298869 ], [ -106.488349515565247, 31.769442056169463 ], [ -106.487626964288964, 31.76990848755792 ] ] } },
{ "type": "Feature", "properties": { "STREETNAME": "MISSOURI", "STYPE": "AVE", "CLASS": "LOCAL" }, "geometry": { "type": "LineString", "coordinates": [ [ -106.482976058202183, 31.766136393650545 ], [ -106.483072642980048, 31.766071258243045 ], [ -106.483164765200598, 31.766011839116256 ], [ -106.48325656238687, 31.76595518932632 ], [ -106.483348181669342, 31.765895794738757 ], [ -106.483438650233168, 31.765841960764426 ], [ -106.483531953289045, 31.765785239560792 ], [ -106.483625835617559, 31.765731244032406 ], [ -106.483722606642829, 31.765679865882731 ], [ -106.483819076055497, 31.765628501013598 ], [ -106.483846822827104, 31.765610668367039 ] ] } },
{ "type": "Feature", "properties": { "STREETNAME": "YANDELL", "STYPE": "DR", "CLASS": "MINOR" }, "geometry": { "type": "LineString", "coordinates": [ [ -106.485918104763428, 31.76646254750613 ], [ -106.485971968384547, 31.766429714257111 ], [ -106.486062559490037, 31.766373118583804 ], [ -106.486152972728235, 31.766313779919731 ], [ -106.486244690620325, 31.766254377665327 ], [ -106.486335884356805, 31.766197754179196 ], [ -106.486427001403968, 31.766138382915123 ], [ -106.48651821618634, 31.766079004247306 ], [ -106.486609509782113, 31.766022376729428 ], [ -106.486699220191397, 31.765963068184458 ], [ -106.486762133276216, 31.765916041663221 ] ] } },
{ "type": "Feature", "properties": { "STREETNAME": "RIVER", "STYPE": "AVE", "CLASS": "LOCAL" }, "geometry": { "type": "LineString", "coordinates": [ [ -106.488903683476622, 31.771356799953043 ], [ -106.488051108340542, 31.771900966244946 ] ] } },
{ "type": "Feature", "properties": { "STREETNAME": "RIO GRANDE", "STYPE": "AVE", "CLASS": "MINOR" }, "geometry": { "type": "LineString", "coordinates": [ [ -106.478243944108414, 31.773672351381247 ], [ -106.478151078068649, 31.773723541217411 ], [ -106.478061053405781, 31.773782856132321 ], [ -106.477970628125476, 31.773842190804995 ], [ -106.477880404009937, 31.773901515002883 ], [ -106.477790402696627, 31.77395807548589 ], [ -106.47769957546241, 31.774017428936311 ], [ -106.477609149616683, 31.774076761551491 ], [ -106.477518144339641, 31.774133367440363 ], [ -106.477426713928878, 31.774192750976166 ], [ -106.477335405900007, 31.774249371023721 ], [ -106.477244778385909, 31.774308714690676 ], [ -106.477153572445147, 31.774365330679455 ], [ -106.477037982658331, 31.774445124971464 ] ] } },
{ "type": "Feature", "properties": { "STREETNAME": "ANGE", "STYPE": "ST", "CLASS": "LOCAL" }, "geometry": { "type": "LineString", "coordinates": [ [ -106.486772441226407, 31.770458245393648 ], [ -106.487411167026266, 31.771179636465529 ] ] } },
{ "type": "Feature", "properties": { "STREETNAME": "WYOMING", "STYPE": "AVE", "CLASS": "MINOR" }, "geometry": { "type": "LineString", "coordinates": [ [ -106.477534298637664, 31.770721477758194 ], [ -106.477494955526538, 31.770745364690246 ], [ -106.477403629319411, 31.770804739907028 ], [ -106.477312727249313, 31.770861341895667 ], [ -106.476332810394581, 31.771491284606658 ] ] } },
{ "type": "Feature", "properties": { "STREETNAME": "MONTANA", "STYPE": "AVE", "CLASS": "MAJOR" }, "geometry": { "type": "LineString", "coordinates": [ [ -106.480026878565923, 31.77139111783525 ], [ -106.479950659420638, 31.771444277473861 ], [ -106.479860839312423, 31.771503583272231 ], [ -106.47977023950645, 31.771560172716175 ], [ -106.47967991655085, 31.771619504846154 ], [ -106.47958871464175, 31.771676122600187 ], [ -106.479496787079725, 31.771735529502916 ], [ -106.4794046794282, 31.771792189006735 ], [ -106.479312951974478, 31.771851587214844 ], [ -106.479221548234165, 31.771908213318333 ], [ -106.479130523575421, 31.771967577276907 ], [ -106.479039621363228, 31.772024179544839 ], [ -106.478949822853949, 31.772080732309263 ], [ -106.478860001636193, 31.772140039203528 ], [ -106.478822645652428, 31.772166583048328 ] ] } },
{ "type": "Feature", "properties": { "STREETNAME": "CIRCLE", "STYPE": "DR", "CLASS": "LOCAL" }, "geometry": { "type": "LineString", "coordinates": [ [ -106.482842975950646, 31.774113019345773 ], [ -106.483208073510752, 31.77452524947358 ], [ -106.483489862828947, 31.774842301959666 ] ] } },
{ "type": "Feature", "properties": { "STREETNAME": "RIO GRANDE", "STYPE": "AVE", "CLASS": "MINOR" }, "geometry": { "type": "LineString", "coordinates": [ [ -106.482560481848722, 31.770891440397406 ], [ -106.482512358499037, 31.770921246613426 ], [ -106.48242035374723, 31.77097790623618 ], [ -106.482328853731929, 31.771034541025067 ], [ -106.482238532815046, 31.771093874041469 ], [ -106.482147533210323, 31.771150484132367 ], [ -106.482057739367605, 31.771207037158817 ], [ -106.481968422658866, 31.771266322500828 ], [ -106.481870055573381, 31.77133979940313 ] ] } },
{ "type": "Feature", "properties": { "STREETNAME": "MONTANA", "STYPE": "AVE", "CLASS": "MAJOR" }, "geometry": { "type": "LineString", "coordinates": [ [ -106.481927684974423, 31.770161486737251 ], [ -106.481853251926367, 31.770217314511626 ], [ -106.481763232953952, 31.770276632967956 ], [ -106.481672111308697, 31.770336003474224 ], [ -106.481581513694366, 31.770392594204264 ], [ -106.481490691181577, 31.770451950431667 ], [ -106.481399491471734, 31.770508569479869 ], [ -106.48130866978849, 31.77056792552785 ], [ -106.481234061613023, 31.770616634479413 ] ] } },
{ "type": "Feature", "properties": { "STREETNAME": "MISSOURI", "STYPE": "AVE", "CLASS": "LOCAL" }, "geometry": { "type": "LineString", "coordinates": [ [ -106.475722803460101, 31.770801523623661 ], [ -106.476697696808699, 31.770171824243477 ], [ -106.476792435821039, 31.770112286511274 ], [ -106.476878247849385, 31.77006418371932 ], [ -106.476933214897201, 31.770020288983186 ] ] } },
{ "type": "Feature", "properties": { "STREETNAME": "CALIFORNIA", "STYPE": "AVE", "CLASS": "LOCAL" }, "geometry": { "type": "LineString", "coordinates": [ [ -106.483781529976483, 31.773507009139504 ], [ -106.483416373818883, 31.773739017526601 ], [ -106.482842975950646, 31.774113019345773 ] ] } },
{ "type": "Feature", "properties": { "STREETNAME": "NOBLE", "STYPE": "ST", "CLASS": "LOCAL" }, "geometry": { "type": "LineString", "coordinates": [ [ -106.485114734607933, 31.773788109163984 ], [ -106.485442989360493, 31.774166285077225 ] ] } },
{ "type": "Feature", "properties": { "STREETNAME": "MONTANA", "STYPE": "AVE", "CLASS": "MAJOR" }, "geometry": { "type": "LineString", "coordinates": [ [ -106.486552558704346, 31.767186897540128 ], [ -106.48647940365916, 31.767234408383818 ], [ -106.486388688411097, 31.767293763314171 ], [ -106.486297972991395, 31.767353117279402 ], [ -106.486207581359182, 31.767409703621787 ], [ -106.486116665389929, 31.767469066030667 ], [ -106.486026149958874, 31.767528411230032 ], [ -106.485935657747532, 31.767585000315144 ], [ -106.485844640369535, 31.767644369117225 ], [ -106.485753647328252, 31.76770098265521 ], [ -106.48570874142392, 31.767730638032425 ] ] } },
{ "type": "Feature", "properties": { "STREETNAME": "ANGE", "STYPE": "ST", "CLASS": "LOCAL" }, "geometry": { "type": "LineString", "coordinates": [ [ -106.482976058202183, 31.766136393650545 ], [ -106.483292871044554, 31.766498593879813 ], [ -106.483581525321057, 31.76683184391187 ] ] } },
{ "type": "Feature", "properties": { "STREETNAME": "MISSOURI", "STYPE": "AVE", "CLASS": "LOCAL" }, "geometry": { "type": "LineString", "coordinates": [ [ -106.478144649714096, 31.769258265459875 ], [ -106.478255220606954, 31.76918972289825 ], [ -106.478345764971849, 31.769127627142471 ], [ -106.478433876143242, 31.769068402102356 ], [ -106.478524597174058, 31.769009055506661 ], [ -106.478614037765595, 31.768947014398179 ], [ -106.47870395525878, 31.768887703819008 ], [ -106.478792392155896, 31.768825709992516 ], [ -106.478883012420852, 31.768766365170844 ], [ -106.478973834951475, 31.768707010723109 ], [ -106.479064456160614, 31.768647667523616 ], [ -106.479153469705992, 31.7685883984058 ], [ -106.479243587847606, 31.768529077933628 ], [ -106.479344702910822, 31.768474743156141 ] ] } },
{ "type": "Feature", "properties": { "STREETNAME": "MISSOURI", "STYPE": "AVE", "CLASS": "LOCAL" }, "geometry": { "type": "LineString", "coordinates": [ [ -106.473492808511963, 31.772234640329515 ], [ -106.473617748000137, 31.772175603552533 ], [ -106.473709379419944, 31.772116217692858 ], [ -106.473799782853732, 31.772059638330362 ], [ -106.474430408296172, 31.771649939829096 ], [ -106.47452670394388, 31.771584822382302 ] ] } },
{ "type": "Feature", "properties": { "STREETNAME": "NEVADA", "STYPE": "AVE", "CLASS": "LOCAL" }, "geometry": { "type": "LineString", "coordinates": [ [ -106.483842858708158, 31.772339532283318 ], [ -106.483459999525806, 31.772588896928092 ], [ -106.483145178578567, 31.772790993686595 ] ] } },
{ "type": "Feature", "properties": { "STREETNAME": "ANGE", "STYPE": "ST", "CLASS": "LOCAL" }, "geometry": { "type": "LineString", "coordinates": [ [ -106.488051108340542, 31.771900966244946 ], [ -106.488274038963596, 31.772151967289062 ], [ -106.488690511112281, 31.772627828507606 ] ] } },
{ "type": "Feature", "properties": { "STREETNAME": "MISSOURI", "STYPE": "AVE", "CLASS": "LOCAL" }, "geometry": { "type": "LineString", "coordinates": [ [ -106.47452670394388, 31.771584822382302 ], [ -106.474614217946396, 31.771525629299482 ], [ -106.475053870381345, 31.771232312286457 ], [ -106.475151749187759, 31.771169877216007 ], [ -106.475240791296102, 31.771107856588255 ], [ -106.475330112169203, 31.771048577658313 ], [ -106.47542013378002, 31.7709892637669 ], [ -106.47550985591883, 31.770929963947072 ], [ -106.47560098198322, 31.770870597767029 ], [ -106.475722803460101, 31.770801523623661 ] ] } },
{ "type": "Feature", "properties": { "STREETNAME": "ANGE", "STYPE": "ST", "CLASS": "LOCAL" }, "geometry": { "type": "LineString", "coordinates": [ [ -106.487411167026266, 31.771179636465529 ], [ -106.487569775929344, 31.771356593781913 ], [ -106.488051108340542, 31.771900966244946 ] ] } },
{ "type": "Feature", "properties": { "STREETNAME": "ANGE", "STYPE": "ST", "CLASS": "LOCAL" }, "geometry": { "type": "LineString", "coordinates": [ [ -106.486134550593704, 31.769734056995595 ], [ -106.486711691655486, 31.770389535758106 ], [ -106.486772441226407, 31.770458245393648 ] ] } },
{ "type": "Feature", "properties": { "STREETNAME": "NEWMAN", "STYPE": "ST", "CLASS": "LOCAL" }, "geometry": { "type": "LineString", "coordinates": [ [ -106.47938692503692, 31.770666998064861 ], [ -106.479585160290284, 31.770891646610639 ], [ -106.479949752168238, 31.771301155907373 ], [ -106.480026878565923, 31.77139111783525 ] ] } },
{ "type": "Feature", "properties": { "STREETNAME": "OCTAVIA", "STYPE": "ST", "CLASS": "LOCAL" }, "geometry": { "type": "LineString", "coordinates": [ [ -106.485563556058509, 31.771233996465337 ], [ -106.485964254129314, 31.771685829947842 ], [ -106.486203382522234, 31.771955340095882 ] ] } },
{ "type": "Feature", "properties": { "STREETNAME": "ARIZONA", "STYPE": "AVE", "CLASS": "MINOR" }, "geometry": { "type": "LineString", "coordinates": [ [ -106.486134550593704, 31.769734056995595 ], [ -106.486192176462481, 31.769695541355723 ], [ -106.486283898647841, 31.769636139102253 ], [ -106.48637491777572, 31.769576771840317 ], [ -106.486466438406495, 31.769517378978758 ], [ -106.486557958043889, 31.769457988802859 ], [ -106.486648173519441, 31.76939865753911 ], [ -106.486739089890207, 31.769339293953195 ], [ -106.486830286233996, 31.769282669288518 ], [ -106.486921404817565, 31.76922329689938 ], [ -106.486981943297636, 31.769184640375965 ] ] } },
{ "type": "Feature", "properties": { "STREETNAME": "NOBLE", "STYPE": "ST", "CLASS": "LOCAL" }, "geometry": { "type": "LineString", "coordinates": [ [ -106.484477537459128, 31.773063882144424 ], [ -106.48468144418311, 31.773296515643509 ], [ -106.485031321584515, 31.773692940142432 ], [ -106.485114734607933, 31.773788109163984 ] ] } },
{ "type": "Feature", "properties": { "STREETNAME": "NOBLE", "STYPE": "ST", "CLASS": "LOCAL" }, "geometry": { "type": "LineString", "coordinates": [ [ -106.482560481848722, 31.770891440397406 ], [ -106.483199355275261, 31.771615595882253 ] ] } },
{ "type": "Feature", "properties": { "STREETNAME": "MONTANA", "STYPE": "AVE", "CLASS": "MAJOR" }, "geometry": { "type": "LineString", "coordinates": [ [ -106.478822645652428, 31.772166583048328 ], [ -106.478769153032772, 31.772202145883945 ], [ -106.478679053776986, 31.772258712650245 ], [ -106.478589233276182, 31.772318019303771 ], [ -106.478499311353275, 31.772377328873347 ], [ -106.478408910298754, 31.772433909690481 ], [ -106.478316981266175, 31.772493315742665 ], [ -106.478226178322544, 31.772549914501571 ], [ -106.478134648567519, 31.772609301550506 ], [ -106.478043119635544, 31.772668686682866 ], [ -106.477951514190025, 31.772725323138346 ], [ -106.477860386703156, 31.772784690069511 ], [ -106.477770787990536, 31.772841230692979 ], [ -106.477679560256334, 31.772900604025995 ], [ -106.477609456332658, 31.772942458098001 ] ] } },
{ "type": "Feature", "properties": { "STREETNAME": "CLIFF", "STYPE": "DR", "CLASS": "MINOR" }, "geometry": { "type": "LineString", "coordinates": [ [ -106.489540580260979, 31.772083775110513 ], [ -106.4893684812277, 31.772202045273712 ], [ -106.489276781847707, 31.772258695395827 ], [ -106.489185885459065, 31.772315305640589 ], [ -106.489095669794807, 31.772374637644432 ], [ -106.48900477330416, 31.772431249561247 ], [ -106.488912471482209, 31.772487926102755 ], [ -106.488819488782653, 31.77254188165298 ], [ -106.488728190415912, 31.772598513277572 ], [ -106.488690511112281, 31.772627828507606 ] ] } },
{ "type": "Feature", "properties": { "STREETNAME": "MONTANA", "STYPE": "AVE", "CLASS": "MAJOR" }, "geometry": { "type": "LineString", "coordinates": [ [ -106.489099960586302, 31.765549383199172 ], [ -106.489023573068337, 31.765599800844011 ], [ -106.488932381506928, 31.7656564262257 ], [ -106.488841669297059, 31.765715782901516 ], [ -106.488750177003894, 31.765772420567799 ], [ -106.488658461026205, 31.765831822797264 ], [ -106.488567871982553, 31.765888420288629 ], [ -106.488476655384886, 31.765947798745291 ], [ -106.48838616842086, 31.7660043921701 ], [ -106.48829555555308, 31.766063741918206 ], [ -106.488246789885153, 31.76609908629025 ] ] } },
{ "type": "Feature", "properties": { "STREETNAME": "NEVADA", "STYPE": "AVE", "CLASS": "LOCAL" }, "geometry": { "type": "LineString", "coordinates": [ [ -106.481931313488673, 31.773566942050476 ], [ -106.481540087076013, 31.773819450879216 ], [ -106.481458143936507, 31.77387288002452 ] ] } },
{ "type": "Feature", "properties": { "STREETNAME": "RIVER", "STYPE": "AVE", "CLASS": "LOCAL" }, "geometry": { "type": "LineString", "coordinates": [ [ -106.485114734607933, 31.773788109163984 ], [ -106.484835793770827, 31.773971994310148 ], [ -106.484424224859211, 31.774233732498359 ] ] } },
{ "type": "Feature", "properties": { "STREETNAME": "MONTANA", "STYPE": "AVE", "CLASS": "MAJOR" }, "geometry": { "type": "LineString", "coordinates": [ [ -106.487399153959785, 31.766645771815458 ], [ -106.487301389279551, 31.766708215016845 ], [ -106.487207184379855, 31.766764983437831 ], [ -106.487112653211966, 31.766824516748894 ], [ -106.487021336898394, 31.766883900602892 ], [ -106.486929162718255, 31.766937815073497 ], [ -106.486837041953677, 31.766997236842119 ], [ -106.486747432837078, 31.767056539720951 ], [ -106.486658824883406, 31.767115794267184 ], [ -106.486552558704346, 31.767186897540128 ] ] } },
{ "type": "Feature", "properties": { "STREETNAME": "RIO GRANDE", "STYPE": "AVE", "CLASS": "MINOR" }, "geometry": { "type": "LineString", "coordinates": [ [ -106.488032763000803, 31.767364651574646 ], [ -106.487959006703392, 31.767412191723974 ], [ -106.487867710468549, 31.767468820257097 ], [ -106.487776094660731, 31.767528218789113 ], [ -106.487685780477065, 31.767587555665298 ], [ -106.48759599224239, 31.767644112639431 ], [ -106.487504874657077, 31.767703487388147 ], [ -106.487412978180529, 31.767760144871982 ], [ -106.487322564469807, 31.767819486178436 ], [ -106.487232552119778, 31.767878806620505 ], [ -106.487189932588606, 31.767911107497124 ] ] } },
{ "type": "Feature", "properties": { "STREETNAME": "RIVER", "STYPE": "AVE", "CLASS": "LOCAL" }, "geometry": { "type": "LineString", "coordinates": [ [ -106.488051108340542, 31.771900966244946 ], [ -106.487249880389328, 31.772412414571107 ], [ -106.486842316451117, 31.772676723962306 ] ] } },
{ "type": "Feature", "properties": { "STREETNAME": "RIO GRANDE", "STYPE": "AVE", "CLASS": "MINOR" }, "geometry": { "type": "LineString", "coordinates": [ [ -106.487189932588606, 31.767911107497124 ], [ -106.487141233755693, 31.767938189683502 ], [ -106.487051445978153, 31.76799474712498 ], [ -106.486961733812436, 31.76805405496518 ], [ -106.486872725462234, 31.768113326731598 ], [ -106.48678329215933, 31.768175374383638 ], [ -106.486693100244608, 31.768231950670369 ], [ -106.48660200496191, 31.768288570525353 ], [ -106.486510108377104, 31.768345226408666 ], [ -106.486417985869565, 31.768404646047156 ], [ -106.486340667933547, 31.768457859940582 ] ] } },
{ "type": "Feature", "properties": { "STREETNAME": "CLIFF", "STYPE": "DR", "CLASS": "MINOR" }, "geometry": { "type": "LineString", "coordinates": [ [ -106.487859093114551, 31.773523394787578 ], [ -106.487854779159264, 31.77355938965681 ], [ -106.487832546729223, 31.773662306637089 ], [ -106.487823614400739, 31.77375908899139 ], [ -106.487819522844873, 31.773852890987591 ], [ -106.487811329367005, 31.774428683904549 ], [ -106.487808051718346, 31.774533459003099 ], [ -106.487801850649618, 31.774627358061249 ], [ -106.487780691743367, 31.774721966588345 ], [ -106.487752124650427, 31.774814172456836 ], [ -106.487717232719916, 31.77490667663891 ], [ -106.487674230402845, 31.774996809564939 ], [ -106.487623218171194, 31.775084571892588 ], [ -106.487563916468716, 31.775167217380602 ], [ -106.487498213238339, 31.77524741344892 ], [ -106.487425930539359, 31.77532241537217 ], [ -106.48734846918488, 31.775392155064786 ], [ -106.487266212831713, 31.775459370211493 ], [ -106.487181592169094, 31.775521187265412 ], [ -106.487092184034552, 31.775591491933604 ], [ -106.486951407594603, 31.775683500193907 ], [ -106.486460170375508, 31.77599030831092 ], [ -106.486369647042423, 31.776049653551006 ], [ -106.486279974725861, 31.776103451304301 ], [ -106.486186840079199, 31.77616291991518 ], [ -106.486142009058554, 31.776195323846451 ] ] } },
{ "type": "Feature", "properties": { "STREETNAME": "GOLDEN HILL TERRACE", "STYPE": "ST", "CLASS": "LOCAL" }, "geometry": { "type": "LineString", "coordinates": [ [ -106.479166354484121, 31.774215189902321 ], [ -106.479175622926036, 31.774294595304092 ], [ -106.479190927060145, 31.774456305630949 ], [ -106.479190841132464, 31.774478333772215 ], [ -106.479191336856459, 31.774503091169443 ], [ -106.479192232855169, 31.774527825139373 ], [ -106.479193353017152, 31.774549799008515 ], [ -106.479195052257367, 31.77457449502911 ], [ -106.479196976715372, 31.774596430899194 ], [ -106.479199479198201, 31.774621088970424 ], [ -106.479202205728598, 31.774642985140023 ], [ -106.479201542774803, 31.774662290128035 ], [ -106.479200199138432, 31.774678871441818 ], [ -106.479198252601648, 31.77469548214258 ], [ -106.479196083188398, 31.774714856495677 ], [ -106.479193132012554, 31.774731513756542 ], [ -106.479189782493592, 31.77474819164317 ], [ -106.479185826735858, 31.774764896364477 ], [ -106.479181649212777, 31.774784365588722 ], [ -106.479176790242775, 31.774801115690899 ], [ -106.479171431499651, 31.774817887597671 ], [ -106.47916556888319, 31.77483468330912 ], [ -106.479159205497226, 31.774851501775366 ], [ -106.479152161718218, 31.774865601069557 ], [ -106.479144893888702, 31.77488246226434 ], [ -106.478927770140672, 31.775352493087741 ], [ -106.478659670580043, 31.775940560731808 ], [ -106.478450737095429, 31.776390931592019 ], [ -106.47831050916966, 31.776703152785284 ], [ -106.478310177510949, 31.776730698743187 ], [ -106.478357033206734, 31.777067119104146 ] ] } },
{ "type": "Feature", "properties": { "STREETNAME": "GOLDEN HILL TERRACE", "STYPE": "ST", "CLASS": "LOCAL" }, "geometry": { "type": "LineString", "coordinates": [ [ -106.480475561042468, 31.773371443540746 ], [ -106.480429929327968, 31.77330752484103 ], [ -106.480416536508372, 31.773288883123463 ], [ -106.480308135499484, 31.773170115772309 ], [ -106.480175982723424, 31.773011173792305 ], [ -106.480064022704624, 31.77289807887383 ], [ -106.480045942299228, 31.772887919804511 ], [ -106.48002665617976, 31.772877820414923 ], [ -106.480006544095161, 31.77287051046714 ], [ -106.479985528648299, 31.772863243201716 ], [ -106.47996665284343, 31.772864135112805 ], [ -106.479947778092225, 31.772865026971321 ], [ -106.479928800038749, 31.772865923708231 ], [ -106.479910304328484, 31.772869550777035 ], [ -106.479892006846285, 31.77287316937986 ], [ -106.479874491012112, 31.772879503269152 ], [ -106.479857654693191, 31.772888559077384 ], [ -106.479716752361512, 31.772983315836285 ], [ -106.479488204994695, 31.773129017508374 ], [ -106.479281437702426, 31.77326267812369 ], [ -106.479267489, 31.773274349641305 ], [ -106.479253564934481, 31.773283265965489 ], [ -106.479240017840425, 31.773294918505439 ], [ -106.479226594528598, 31.773303812071266 ], [ -106.479213649323654, 31.773315436171572 ], [ -106.479200907616601, 31.773327051559267 ], [ -106.47918846527304, 31.773338652802035 ], [ -106.479176224086103, 31.773350241829924 ], [ -106.47916428343359, 31.773361818464281 ], [ -106.479152644311398, 31.773373381754865 ], [ -106.479111596207773, 31.773433137574202 ], [ -106.479102645468856, 31.773447324261952 ], [ -106.479095400392339, 31.773461432172311 ], [ -106.479090242107759, 31.773478196423387 ], [ -106.479086711592203, 31.773492127034075 ], [ -106.479085467096951, 31.773508704573583 ], [ -106.479086132764849, 31.773525193675006 ], [ -106.479105576942032, 31.773719745940163 ], [ -106.479140221679629, 31.774040225539103 ], [ -106.479166354484121, 31.774215189902321 ] ] } },
{ "type": "Feature", "properties": { "STREETNAME": "LANGTRY", "STYPE": "ST", "CLASS": "LOCAL" }, "geometry": { "type": "LineString", "coordinates": [ [ -106.474348219311295, 31.767097393092612 ], [ -106.474376654291845, 31.767129086327643 ], [ -106.474522309928204, 31.76731492926374 ], [ -106.474701421936246, 31.767532230852758 ], [ -106.47494478973158, 31.76784951652785 ] ] } },
{ "type": "Feature", "properties": { "STREETNAME": "MISSOURI", "STYPE": "AVE", "CLASS": "LOCAL" }, "geometry": { "type": "LineString", "coordinates": [ [ -106.480564015786712, 31.767690297527363 ], [ -106.480612931474127, 31.76764944377701 ], [ -106.480704553983756, 31.767590050188403 ], [ -106.480794470059124, 31.767530739885363 ], [ -106.480884787320548, 31.767471406036723 ], [ -106.48097450079527, 31.767412105171246 ], [ -106.481066101367674, 31.767355465471329 ], [ -106.481157623293555, 31.767296078090649 ], [ -106.481249245180393, 31.767236685011056 ], [ -106.481339438337201, 31.767180112523 ], [ -106.481430858619191, 31.76712072792785 ], [ -106.481522256321981, 31.767064098366511 ], [ -106.481614180207401, 31.767004689825733 ], [ -106.481703468622683, 31.766948160727591 ], [ -106.481752770235218, 31.766921050314902 ] ] } },
{ "type": "Feature", "properties": { "STREETNAME": "ANGE", "STYPE": "ST", "CLASS": "LOCAL" }, "geometry": { "type": "LineString", "coordinates": [ [ -106.485489710627348, 31.769001935893669 ], [ -106.485707829875679, 31.769250415394861 ], [ -106.486134550593704, 31.769734056995595 ] ] } },
{ "type": "Feature", "properties": { "STREETNAME": "RIVER", "STYPE": "AVE", "CLASS": "LOCAL" }, "geometry": { "type": "LineString", "coordinates": [ [ -106.484424224859211, 31.774233732498359 ], [ -106.484301511298128, 31.774313870386059 ], [ -106.483649654582763, 31.774732882425663 ], [ -106.483489862828947, 31.774842301959666 ] ] } },
{ "type": "Feature", "properties": { "STREETNAME": "MISSOURI", "STYPE": "AVE", "CLASS": "LOCAL" }, "geometry": { "type": "LineString", "coordinates": [ [ -106.481752770235218, 31.766921050314902 ], [ -106.481794688187449, 31.766888785337823 ], [ -106.481885004330991, 31.766829452581501 ], [ -106.481976023518698, 31.766770088329427 ], [ -106.482066918723277, 31.766713480293401 ], [ -106.482156833060714, 31.76665416812876 ], [ -106.4822489564189, 31.766594749663458 ], [ -106.482340075404039, 31.766535382218958 ], [ -106.482432475263678, 31.766478701868738 ], [ -106.482521965013319, 31.766422161730283 ], [ -106.482614589810908, 31.766362721983935 ], [ -106.482706811679009, 31.766303298503956 ], [ -106.482798934469912, 31.766243881442399 ], [ -106.482890732039991, 31.766187231014992 ], [ -106.482976058202183, 31.766136393650545 ] ] } },
{ "type": "Feature", "properties": { "STREETNAME": "WYOMING", "STYPE": "AVE", "CLASS": "MINOR" }, "geometry": { "type": "LineString", "coordinates": [ [ -106.479960261855283, 31.769161604730385 ], [ -106.479856849894929, 31.769226929130607 ], [ -106.479765850659192, 31.769283537598398 ], [ -106.479675029126298, 31.769342892535359 ], [ -106.47958410623157, 31.769402251288344 ], [ -106.479493408244551, 31.769458847118681 ], [ -106.479403389571701, 31.769518163911385 ], [ -106.479313069207009, 31.769577493082998 ], [ -106.47922196823788, 31.769634107744967 ], [ -106.479131647649751, 31.769693436788057 ], [ -106.479041529446505, 31.769752758006447 ], [ -106.478951231289628, 31.769809333626704 ], [ -106.478860710209361, 31.769868673740749 ], [ -106.478746378215405, 31.769942901627644 ] ] } },
{ "type": "Feature", "properties": { "STREETNAME": "LEE", "STYPE": "ST", "CLASS": "LOCAL" }, "geometry": { "type": "LineString", "coordinates": [ [ -106.476332810394581, 31.771491284606658 ], [ -106.476521101239285, 31.771716408906517 ], [ -106.476907632478415, 31.772141407850963 ], [ -106.476974329989432, 31.772218097475214 ] ] } },
{ "type": "Feature", "properties": { "STREETNAME": "WRIGHT", "STYPE": "AVE", "CLASS": "LOCAL" }, "geometry": { "type": "LineString", "coordinates": [ [ -106.48161202430714, 31.774889772946537 ], [ -106.481617016198143, 31.774952858910812 ], [ -106.481617467535187, 31.775018911696893 ], [ -106.481601743612714, 31.775242659844807 ], [ -106.481534177496044, 31.7760965697281 ], [ -106.481470715374684, 31.7769034830762 ] ] } },
{ "type": "Feature", "properties": { "STREETNAME": "ANGE", "STYPE": "ST", "CLASS": "LOCAL" }, "geometry": { "type": "LineString", "coordinates": [ [ -106.488690511112281, 31.772627828507606 ], [ -106.488931836569293, 31.772899981392932 ], [ -106.489496704158455, 31.773539511677797 ] ] } },
{ "type": "Feature", "properties": { "STREETNAME": "NEVADA", "STYPE": "AVE", "CLASS": "LOCAL" }, "geometry": { "type": "LineString", "coordinates": [ [ -106.483145178578567, 31.772790993686595 ], [ -106.482495156559082, 31.773207162390896 ], [ -106.482204667898429, 31.773391589463152 ] ] } },
{ "type": "Feature", "properties": { "STREETNAME": "DALLAS", "STYPE": "ST", "CLASS": "LOCAL" }, "geometry": { "type": "LineString", "coordinates": [ [ -106.475124180955831, 31.772272427962196 ], [ -106.475392018677255, 31.772573639366829 ], [ -106.47540990646668, 31.772594819728553 ], [ -106.475764415342795, 31.772996553941546 ] ] } },
{ "type": "Feature", "properties": { "STREETNAME": "CIRCLE", "STYPE": "DR", "CLASS": "LOCAL" }, "geometry": { "type": "LineString", "coordinates": [ [ -106.482204667898429, 31.773391589463152 ], [ -106.482596314140764, 31.773832847952189 ], [ -106.482842975950646, 31.774113019345773 ] ] } },
{ "type": "Feature", "properties": { "STREETNAME": "WYOMING", "STYPE": "AVE", "CLASS": "MINOR" }, "geometry": { "type": "LineString", "coordinates": [ [ -106.485275952665177, 31.765735804682048 ], [ -106.485206838500304, 31.765780371505155 ], [ -106.485114616419693, 31.765839794166137 ], [ -106.485022799201673, 31.765899201220446 ], [ -106.484932006493651, 31.765955803900798 ], [ -106.484841291499706, 31.766015157782707 ], [ -106.484751300685204, 31.766071722400554 ], [ -106.484660608837089, 31.766128320102592 ], [ -106.484571222993566, 31.766184858683399 ], [ -106.484480607571456, 31.766244205772452 ], [ -106.48443214184384, 31.766279534457713 ] ] } },
{ "type": "Feature", "properties": { "STREETNAME": "OCTAVIA", "STYPE": "ST", "CLASS": "LOCAL" }, "geometry": { "type": "LineString", "coordinates": [ [ -106.486842316451117, 31.772676723962306 ], [ -106.486885356045931, 31.772726997562579 ], [ -106.487384659031591, 31.773295304081564 ], [ -106.487464843793703, 31.773368597539694 ] ] } },
{ "type": "Feature", "properties": { "STREETNAME": "CLIFF", "STYPE": "DR", "CLASS": "MINOR" }, "geometry": { "type": "LineString", "coordinates": [ [ -106.488690511112281, 31.772627828507606 ], [ -106.488638073223541, 31.77265783936873 ], [ -106.488549161921156, 31.772717110137442 ], [ -106.48846034959297, 31.77277637615564 ], [ -106.488370232181495, 31.772835703858288 ], [ -106.488247571516652, 31.772910336070932 ] ] } },
{ "type": "Feature", "properties": { "STREETNAME": "ARIZONA", "STYPE": "AVE", "CLASS": "MINOR" }, "geometry": { "type": "LineString", "coordinates": [ [ -106.484927174705987, 31.770509732082427 ], [ -106.485010542488482, 31.770453478138883 ], [ -106.485101863663559, 31.7703940984794 ], [ -106.485192182127619, 31.770334763460582 ], [ -106.485282575155168, 31.770278179788495 ], [ -106.485371888926053, 31.770218893050767 ], [ -106.485463687747981, 31.770162240947283 ], [ -106.485554908165113, 31.77010286479879 ], [ -106.485645526478947, 31.770043515250602 ], [ -106.485736726258196, 31.769986891267695 ], [ -106.485828245691323, 31.769927500764926 ], [ -106.485920245227874, 31.769870837910201 ], [ -106.486011064418662, 31.769811478579697 ], [ -106.486101279633914, 31.769752149553938 ], [ -106.486134550593704, 31.769734056995595 ] ] } },
{ "type": "Feature", "properties": { "STREETNAME": "NEVADA", "STYPE": "AVE", "CLASS": "LOCAL" }, "geometry": { "type": "LineString", "coordinates": [ [ -106.482204667898429, 31.773391589463152 ], [ -106.481931313488673, 31.773566942050476 ] ] } },
{ "type": "Feature", "properties": { "STREETNAME": "RIO GRANDE", "STYPE": "AVE", "CLASS": "MINOR" }, "geometry": { "type": "LineString", "coordinates": [ [ -106.475834937900814, 31.7752149953931 ], [ -106.475787715750457, 31.775244756317104 ], [ -106.475696508101535, 31.775301372165014 ], [ -106.475605600829752, 31.775357974663102 ], [ -106.47551356484864, 31.775417381694947 ], [ -106.475421529923139, 31.775476790411521 ], [ -106.475331325310691, 31.775533357715958 ], [ -106.475239489390432, 31.775592756894589 ], [ -106.47514896142097, 31.775652092442979 ], [ -106.475057628094902, 31.775711467750863 ], [ -106.474967121734707, 31.775768051732992 ], [ -106.474876290890663, 31.775827401370965 ], [ -106.474786464643543, 31.775886705318285 ], [ -106.474696035316754, 31.775946037667985 ], [ -106.474618380413617, 31.776002011963644 ] ] } },
{ "type": "Feature", "properties": { "STREETNAME": "NOBLE", "STYPE": "ST", "CLASS": "LOCAL" }, "geometry": { "type": "LineString", "coordinates": [ [ -106.483199355275261, 31.771615595882253 ], [ -106.483296103486708, 31.771723901183716 ], [ -106.483842858708158, 31.772339532283318 ] ] } },
{ "type": "Feature", "properties": { "STREETNAME": "LEE", "STYPE": "ST", "CLASS": "LOCAL" }, "geometry": { "type": "LineString", "coordinates": [ [ -106.475722803460101, 31.770801523623661 ], [ -106.475808566768407, 31.770902093418584 ], [ -106.476268398633295, 31.771417239861272 ], [ -106.476332810394581, 31.771491284606658 ] ] } },
{ "type": "Feature", "properties": { "STREETNAME": "LANGTRY", "STYPE": "ST", "CLASS": "LOCAL" }, "geometry": { "type": "LineString", "coordinates": [ [ -106.476933214897201, 31.770020288983186 ], [ -106.477043801314096, 31.770152724037796 ], [ -106.477245699281639, 31.770382710040039 ], [ -106.477534298637664, 31.770721477758194 ] ] } },
{ "type": "Feature", "properties": { "STREETNAME": "CALIFORNIA", "STYPE": "AVE", "CLASS": "LOCAL" }, "geometry": { "type": "LineString", "coordinates": [ [ -106.484477537459128, 31.773063882144424 ], [ -106.484318721216226, 31.773164997422299 ], [ -106.483781529976483, 31.773507009139504 ] ] } },
{ "type": "Feature", "properties": { "STREETNAME": "RIVER", "STYPE": "AVE", "CLASS": "LOCAL" }, "geometry": { "type": "LineString", "coordinates": [ [ -106.486842316451117, 31.772676723962306 ], [ -106.486429583611567, 31.7729467827081 ], [ -106.485426442945467, 31.773586154886093 ], [ -106.485114734607933, 31.773788109163984 ] ] } },
{ "type": "Feature", "properties": { "STREETNAME": "RIO GRANDE", "STYPE": "AVE", "CLASS": "MINOR" }, "geometry": { "type": "LineString", "coordinates": [ [ -106.488885398733956, 31.766820479649493 ], [ -106.488779154697411, 31.766888829746762 ], [ -106.488687839188216, 31.766948212066492 ], [ -106.488596823143652, 31.76700758375749 ], [ -106.48850593131391, 31.767064192743366 ], [ -106.488414037106409, 31.767120850897982 ], [ -106.488323121854435, 31.767180216705029 ], [ -106.488231426580001, 31.767236864401234 ], [ -106.488140412023625, 31.767296234766253 ], [ -106.488032763000803, 31.767364651574646 ] ] } },
{ "type": "Feature", "properties": { "STREETNAME": "WYOMING", "STYPE": "AVE", "CLASS": "MINOR" }, "geometry": { "type": "LineString", "coordinates": [ [ -106.48443214184384, 31.766279534457713 ], [ -106.484392076712837, 31.766306209160323 ], [ -106.48430148561367, 31.766362801822083 ], [ -106.484210569572014, 31.766422164725331 ], [ -106.484119449989208, 31.766481537183108 ], [ -106.48402765380456, 31.766538186619353 ], [ -106.483936759935546, 31.76659479602807 ], [ -106.483845643061571, 31.76665416633973 ], [ -106.48375582897377, 31.766713476786666 ], [ -106.483665637639874, 31.766770050058319 ], [ -106.483581525321057, 31.76683184391187 ] ] } },
{ "type": "Feature", "properties": { "STREETNAME": "NEWMAN", "STYPE": "ST", "CLASS": "LOCAL" }, "geometry": { "type": "LineString", "coordinates": [ [ -106.480026878565923, 31.77139111783525 ], [ -106.480173091817079, 31.771560408050249 ], [ -106.480522688827179, 31.771951352542708 ], [ -106.480664833857944, 31.77211533005044 ] ] } },
{ "type": "Feature", "properties": { "STREETNAME": "RIO GRANDE", "STYPE": "AVE", "CLASS": "MINOR" }, "geometry": { "type": "LineString", "coordinates": [ [ -106.480664833857944, 31.77211533005044 ], [ -106.480608401400488, 31.772142775931908 ], [ -106.480517700237201, 31.77219937066382 ], [ -106.480426573862047, 31.772258740353362 ], [ -106.480335649584447, 31.772318097712599 ], [ -106.480244546538984, 31.772374712128748 ], [ -106.480155129570562, 31.772434000832245 ], [ -106.480063400737421, 31.772493396902391 ], [ -106.479972174711165, 31.772552770949112 ], [ -106.479881250043363, 31.772612130685722 ], [ -106.479790146386989, 31.772668743876931 ], [ -106.479699421773631, 31.772728094020643 ], [ -106.479608520343575, 31.772784698420036 ], [ -106.479517594172606, 31.772844057947143 ], [ -106.479425664323884, 31.772903463921772 ], [ -106.479334336253388, 31.772962841392715 ], [ -106.479303618098101, 31.77298293592402 ] ] } },
{ "type": "Feature", "properties": { "STREETNAME": "MISSOURI", "STYPE": "AVE", "CLASS": "LOCAL" }, "geometry": { "type": "LineString", "coordinates": [ [ -106.476933214897201, 31.770020288983186 ], [ -106.476972764824239, 31.770007410357778 ], [ -106.477073203341746, 31.769950355436102 ], [ -106.47716520940736, 31.76989370232004 ], [ -106.477256636020385, 31.769834321569434 ], [ -106.477347938625371, 31.76977769882739 ], [ -106.477437758670533, 31.76971839472235 ], [ -106.477529361465528, 31.769661757661193 ], [ -106.477620687549788, 31.769602382279892 ], [ -106.477709980606207, 31.769545853276121 ], [ -106.477801507734441, 31.769486467354991 ], [ -106.477892230496735, 31.769427119358831 ], [ -106.477984156828839, 31.769367713535189 ], [ -106.478073775817393, 31.769308418442389 ], [ -106.478144649714096, 31.769258265459875 ] ] } },
{ "type": "Feature", "properties": { "STREETNAME": "OCTAVIA", "STYPE": "ST", "CLASS": "LOCAL" }, "geometry": { "type": "LineString", "coordinates": [ [ -106.486203382522234, 31.771955340095882 ], [ -106.486502360401289, 31.772293600367867 ], [ -106.486842316451117, 31.772676723962306 ] ] } },
{ "type": "Feature", "properties": { "STREETNAME": "WYOMING", "STYPE": "AVE", "CLASS": "MINOR" }, "geometry": { "type": "LineString", "coordinates": [ [ -106.475124180955831, 31.772272427962196 ], [ -106.474604524256691, 31.772602559354691 ], [ -106.473917387040046, 31.773047966041947 ] ] } },
{ "type": "Feature", "properties": { "STREETNAME": "NOBLE", "STYPE": "ST", "CLASS": "LOCAL" }, "geometry": { "type": "LineString", "coordinates": [ [ -106.481810708435177, 31.769112565505861 ], [ -106.482437339481024, 31.769834549928834 ] ] } },
{ "type": "Feature", "properties": { "STREETNAME": "RIO GRANDE", "STYPE": "AVE", "CLASS": "MINOR" }, "geometry": { "type": "LineString", "coordinates": [ [ -106.477037982658331, 31.774445124971464 ], [ -106.476969705738099, 31.774484140103933 ], [ -106.476878275526445, 31.774543520495129 ], [ -106.476789077304474, 31.774600042287538 ], [ -106.476697747068457, 31.774659418720546 ], [ -106.476606919535641, 31.774718771342688 ], [ -106.476516189806404, 31.774778117469577 ], [ -106.476425158600492, 31.774837479569733 ], [ -106.476334957300523, 31.774894047484036 ], [ -106.476243926924454, 31.774953409405018 ], [ -106.476153020253349, 31.775010011392538 ], [ -106.476061185352407, 31.775069411162885 ], [ -106.47596977663774, 31.775126035812839 ], [ -106.475878847007777, 31.775185392694755 ], [ -106.475834937900814, 31.7752149953931 ] ] } },
{ "type": "Feature", "properties": { "STREETNAME": "YANDELL", "STYPE": "DR", "CLASS": "MINOR" }, "geometry": { "type": "LineString", "coordinates": [ [ -106.4842179718664, 31.767556110276931 ], [ -106.484333800655392, 31.767481803688639 ], [ -106.484424317215499, 31.76742246146566 ], [ -106.484514408408188, 31.767365889716672 ], [ -106.484605125070658, 31.767306538795292 ], [ -106.484696018168236, 31.767249928985638 ], [ -106.484788241820553, 31.767190505753344 ], [ -106.484879436210718, 31.767133882457294 ], [ -106.484971557452653, 31.767074464828166 ], [ -106.48506964797302, 31.767009255829162 ] ] } },
{ "type": "Feature", "properties": { "STREETNAME": "MONTANA", "STYPE": "AVE", "CLASS": "MAJOR" }, "geometry": { "type": "LineString", "coordinates": [ [ -106.488246789885153, 31.76609908629025 ], [ -106.488204160740366, 31.766120376355733 ], [ -106.488114252848519, 31.766179693509269 ], [ -106.488024140422098, 31.766239021175295 ], [ -106.487933428142981, 31.766298377155021 ], [ -106.487821061370013, 31.766371520753481 ], [ -106.487754711975924, 31.766416958951197 ], [ -106.487665102925078, 31.766476262524897 ], [ -106.487575895230279, 31.766535545234209 ], [ -106.487477829269011, 31.766598001932934 ], [ -106.487399153959785, 31.766645771815458 ] ] } },
{ "type": "Feature", "properties": { "STREETNAME": "YANDELL", "STYPE": "DR", "CLASS": "MINOR" }, "geometry": { "type": "LineString", "coordinates": [ [ -106.478182896178993, 31.771442445417204 ], [ -106.478299833126187, 31.771368114086634 ], [ -106.478519967950064, 31.771224173815277 ], [ -106.47887854669348, 31.770994888832291 ], [ -106.478962729173816, 31.770940627379293 ], [ -106.479200848628579, 31.770789283931048 ], [ -106.479219094525789, 31.770777769763246 ], [ -106.479285541085716, 31.770734821114594 ], [ -106.479339002043432, 31.770699715638987 ], [ -106.47938692503692, 31.770666998064861 ] ] } },
{ "type": "Feature", "properties": { "STREETNAME": "BROWN", "STYPE": "ST", "CLASS": "MINOR" }, "geometry": { "type": "LineString", "coordinates": [ [ -106.481870055573381, 31.77133979940313 ], [ -106.481940727682328, 31.771421806870169 ], [ -106.482008031745238, 31.77149846633889 ], [ -106.482075335916704, 31.771575125770571 ], [ -106.48214444701928, 31.771651701565165 ], [ -106.482213334106504, 31.771731036529054 ], [ -106.482281240668144, 31.771807670098074 ], [ -106.482349448575746, 31.771884285776842 ], [ -106.482418135842053, 31.7719636318933 ], [ -106.482508827785026, 31.772063964633244 ] ] } },
{ "type": "Feature", "properties": { "STREETNAME": "BROWN", "STYPE": "ST", "CLASS": "MINOR" }, "geometry": { "type": "LineString", "coordinates": [ [ -106.479344702910822, 31.768474743156141 ], [ -106.47963293337547, 31.76878599629979 ], [ -106.479900959836172, 31.769100953976562 ], [ -106.479960261855283, 31.769161604730385 ] ] } },
{ "type": "Feature", "properties": { "STREETNAME": "YANDELL", "STYPE": "DR", "CLASS": "MINOR" }, "geometry": { "type": "LineString", "coordinates": [ [ -106.481810708435177, 31.769112565505861 ], [ -106.48188981358409, 31.76906202311531 ], [ -106.48197872562001, 31.76900275680887 ], [ -106.482069043774331, 31.768943425774928 ], [ -106.482159563024013, 31.768884083359225 ], [ -106.482250560451448, 31.768827473209772 ], [ -106.482339873638054, 31.768768187667479 ], [ -106.482431295876594, 31.76870880235689 ], [ -106.482521790132239, 31.768652214881413 ], [ -106.482612509150314, 31.768592863577172 ], [ -106.482703908618845, 31.768536233169119 ], [ -106.482794427084301, 31.768476890302583 ], [ -106.482886927874731, 31.768420208590751 ], [ -106.482977546250169, 31.768360860860291 ], [ -106.483011187329453, 31.768334493095551 ] ] } },
{ "type": "Feature", "properties": { "STREETNAME": "BROWN", "STYPE": "ST", "CLASS": "MINOR" }, "geometry": { "type": "LineString", "coordinates": [ [ -106.485725902728518, 31.775711178314154 ], [ -106.485768840914716, 31.775761457959952 ], [ -106.485835828428137, 31.775840885519415 ], [ -106.485903238847271, 31.775917537205107 ], [ -106.48597153042958, 31.775996901217162 ], [ -106.486039240618098, 31.776073541370064 ], [ -106.486106528889337, 31.776152952770271 ], [ -106.486142009058554, 31.776195323846451 ] ] } },
{ "type": "Feature", "properties": { "STREETNAME": "ARIZONA", "STYPE": "AVE", "CLASS": "MINOR" }, "geometry": { "type": "LineString", "coordinates": [ [ -106.478313573138593, 31.77476205174764 ], [ -106.478396623592289, 31.774708573314978 ], [ -106.478486245310293, 31.774649279062459 ], [ -106.478576246689201, 31.774592715412329 ], [ -106.478666071631309, 31.774533411422585 ], [ -106.478757099154478, 31.774474049649395 ], [ -106.478847602083846, 31.774417463904918 ], [ -106.478938003768263, 31.774360883777575 ], [ -106.479027425475593, 31.77430159675561 ], [ -106.479119031799414, 31.774244959578279 ], [ -106.479166354484121, 31.774215189902321 ] ] } },
{ "type": "Feature", "properties": { "STREETNAME": "YANDELL", "STYPE": "DR", "CLASS": "MINOR" }, "geometry": { "type": "LineString", "coordinates": [ [ -106.473479342899978, 31.774467229648948 ], [ -106.473532235582979, 31.774431693876277 ], [ -106.473622941924532, 31.774375103208992 ], [ -106.473714676657551, 31.774315712620204 ], [ -106.473805807090059, 31.774256347775232 ], [ -106.473895433295951, 31.774197055671799 ], [ -106.473985837660862, 31.77414047807704 ], [ -106.474077270346214, 31.774081099657529 ], [ -106.474167799538264, 31.77402176381759 ], [ -106.474259308347357, 31.773965134780138 ], [ -106.474348632401814, 31.773905854788808 ], [ -106.474439839572639, 31.773849240754458 ], [ -106.474555060046868, 31.773777724703155 ] ] } },
{ "type": "Feature", "properties": { "STREETNAME": "BROWN", "STYPE": "ST", "CLASS": "MINOR" }, "geometry": { "type": "LineString", "coordinates": [ [ -106.479960261855283, 31.769161604730385 ], [ -106.480042891381061, 31.769253927855658 ], [ -106.480105574645407, 31.769330808384971 ], [ -106.480168535681372, 31.769410426180745 ], [ -106.4802353105447, 31.769489865531533 ], [ -106.480303815547941, 31.769566468155432 ], [ -106.480372222808427, 31.769643078074928 ], [ -106.480441532343818, 31.769719643516297 ], [ -106.480510539473471, 31.769796223214605 ], [ -106.48058967423556, 31.769886089919765 ] ] } },
{ "type": "Feature", "properties": { "STREETNAME": "ARIZONA", "STYPE": "AVE", "CLASS": "MINOR" }, "geometry": { "type": "LineString", "coordinates": [ [ -106.482508827785026, 31.772063964633244 ], [ -106.482558780921607, 31.772031318831459 ], [ -106.482648699983486, 31.771972006450554 ], [ -106.482738818039508, 31.771912682787235 ], [ -106.482829617628198, 31.771856079966916 ], [ -106.482920742174372, 31.771796709486821 ], [ -106.483012445013969, 31.771740065631654 ], [ -106.483104670797488, 31.771680642044576 ], [ -106.483199355275261, 31.771615595882253 ] ] } },
{ "type": "Feature", "properties": { "STREETNAME": "YANDELL", "STYPE": "DR", "CLASS": "MINOR" }, "geometry": { "type": "LineString", "coordinates": [ [ -106.476974329989432, 31.772218097475214 ], [ -106.477065556688046, 31.772158728272231 ], [ -106.477156685067072, 31.77209936093243 ], [ -106.477247812394637, 31.772039995378282 ], [ -106.477338715514321, 31.771983391660054 ], [ -106.477430143033459, 31.771924011786439 ], [ -106.477521245215328, 31.771867399428942 ], [ -106.477611871282676, 31.771808055462952 ], [ -106.477703599815911, 31.771748659352596 ], [ -106.477794804967559, 31.77169204192046 ], [ -106.477884222768679, 31.771632755721054 ], [ -106.477975626865998, 31.771576127848647 ], [ -106.478067055703548, 31.771516747418769 ], [ -106.478182896178993, 31.771442445417204 ] ] } },
{ "type": "Feature", "properties": { "STREETNAME": "ARIZONA", "STYPE": "AVE", "CLASS": "MINOR" }, "geometry": { "type": "LineString", "coordinates": [ [ -106.477682764320633, 31.775169028427214 ], [ -106.477764255199347, 31.775110116055551 ], [ -106.477855864109486, 31.775053479735078 ], [ -106.477947070234023, 31.774996862369239 ], [ -106.478037774485912, 31.77494026863933 ], [ -106.478128903929019, 31.774880901634205 ], [ -106.478217903383992, 31.774824387390961 ], [ -106.478313573138593, 31.77476205174764 ] ] } },
{ "type": "Feature", "properties": { "STREETNAME": "YANDELL", "STYPE": "DR", "CLASS": "MINOR" }, "geometry": { "type": "LineString", "coordinates": [ [ -106.475764415342795, 31.772996553941546 ], [ -106.475797006958558, 31.772975744055373 ], [ -106.475887534082091, 31.772916407894567 ], [ -106.475978059921957, 31.772857069918249 ], [ -106.476068764299839, 31.772800476562097 ], [ -106.476159993119111, 31.772741107056778 ], [ -106.476251020374363, 31.77268174519277 ], [ -106.476341423007725, 31.772625166779751 ], [ -106.476431247309833, 31.772565861584283 ], [ -106.476521850062866, 31.772509274485905 ], [ -106.476612977009452, 31.772449907634325 ], [ -106.476703803540659, 31.772390556706345 ], [ -106.476794507041106, 31.772333962834349 ], [ -106.476885032988747, 31.772274626865684 ], [ -106.476974329989432, 31.772218097475214 ] ] } },
{ "type": "Feature", "properties": { "STREETNAME": "YANDELL", "STYPE": "DR", "CLASS": "MINOR" }, "geometry": { "type": "LineString", "coordinates": [ [ -106.474555060046868, 31.773777724703155 ], [ -106.474619991348348, 31.773730609442033 ], [ -106.474710697427014, 31.773674017951745 ], [ -106.474801023387826, 31.773614690316531 ], [ -106.474891250265756, 31.773555369096311 ], [ -106.474982180007004, 31.77349601281632 ], [ -106.47507288465026, 31.773439422018843 ], [ -106.475163914307572, 31.773380060881205 ], [ -106.475255221740852, 31.773323442386722 ], [ -106.475345046210236, 31.773264136205608 ], [ -106.475435450053524, 31.773207560235488 ], [ -106.475526054011297, 31.773150973844174 ], [ -106.475615151425927, 31.773094456712695 ], [ -106.475706681172767, 31.773035072446099 ], [ -106.475764415342795, 31.772996553941546 ] ] } },
{ "type": "Feature", "properties": { "STREETNAME": "BROWN", "STYPE": "ST", "CLASS": "MINOR" }, "geometry": { "type": "LineString", "coordinates": [ [ -106.485065522318052, 31.774960519026386 ], [ -106.485152081143326, 31.775063798658998 ], [ -106.485220092539862, 31.775140424958984 ], [ -106.485288004724808, 31.775217052305145 ], [ -106.485356595832627, 31.77529640425502 ], [ -106.485425210346122, 31.775372999224377 ], [ -106.485494704893526, 31.775452305671994 ], [ -106.485563822683702, 31.77552888038587 ], [ -106.485632839155372, 31.775605456244815 ], [ -106.485700751068109, 31.775682085212544 ], [ -106.485725902728518, 31.775711178314154 ] ] } },
{ "type": "Feature", "properties": { "STREETNAME": "ARIZONA", "STYPE": "AVE", "CLASS": "MINOR" }, "geometry": { "type": "LineString", "coordinates": [ [ -106.481302073198663, 31.772842325455709 ], [ -106.481386827877301, 31.772788763468998 ], [ -106.481477149941014, 31.772729432032996 ], [ -106.481566945509414, 31.772672878540181 ], [ -106.481656665402056, 31.772613574524193 ], [ -106.481746585636273, 31.772554263680266 ], [ -106.4818371860339, 31.772497669231484 ], [ -106.481928109545407, 31.772438310827972 ], [ -106.482018406378174, 31.772381734201726 ], [ -106.48210912921256, 31.77232238243429 ], [ -106.482199427877276, 31.772265804679865 ], [ -106.482289949156055, 31.772206462300463 ], [ -106.48237833975324, 31.772149975506196 ], [ -106.482469062141575, 31.772090623482597 ], [ -106.482508827785026, 31.772063964633244 ] ] } },
{ "type": "Feature", "properties": { "STREETNAME": "YANDELL", "STYPE": "DR", "CLASS": "MINOR" }, "geometry": { "type": "LineString", "coordinates": [ [ -106.483011187329453, 31.768334493095551 ], [ -106.48306844249629, 31.768304253961286 ], [ -106.483159462240579, 31.768244887115081 ], [ -106.48324917707582, 31.768185583700046 ], [ -106.483339313754001, 31.768123507136274 ], [ -106.483428002383178, 31.768067004335997 ], [ -106.483518318626736, 31.768007670474084 ], [ -106.483609236734225, 31.767948309891949 ], [ -106.48370065739087, 31.76788892367113 ], [ -106.48379135143243, 31.767832325776116 ], [ -106.483882872056199, 31.767772935590511 ], [ -106.483974092104987, 31.767713558643177 ], [ -106.484064283038308, 31.767656984328056 ], [ -106.484154398227091, 31.767597659485261 ], [ -106.4842179718664, 31.767556110276931 ] ] } },
{ "type": "Feature", "properties": { "STREETNAME": "BROWN", "STYPE": "ST", "CLASS": "MINOR" }, "geometry": { "type": "LineString", "coordinates": [ [ -106.481234061613023, 31.770616634479413 ], [ -106.481261637312883, 31.770647234251779 ], [ -106.481330625472069, 31.770726569383971 ], [ -106.481397424700972, 31.770803253002668 ], [ -106.481464450996512, 31.77087717182442 ], [ -106.481533035779307, 31.770956525923314 ], [ -106.48160184429463, 31.77103311267112 ], [ -106.481669953243923, 31.771109736063902 ], [ -106.481737656306336, 31.771186375898807 ], [ -106.481805038714697, 31.771265784890986 ], [ -106.481870055573381, 31.77133979940313 ] ] } },
{ "type": "Feature", "properties": { "STREETNAME": "ARIZONA", "STYPE": "AVE", "CLASS": "MINOR" }, "geometry": { "type": "LineString", "coordinates": [ [ -106.475256449229803, 31.776723488599018 ], [ -106.475318176488045, 31.776687538664248 ], [ -106.475408204502259, 31.776628224862552 ], [ -106.47549833477278, 31.776568907970404 ], [ -106.475589745039827, 31.7765122818825 ], [ -106.475679974060057, 31.776452958382286 ], [ -106.475769776596877, 31.776396408969863 ], [ -106.475861110194515, 31.776337034078956 ], [ -106.475950936196725, 31.776277729400828 ], [ -106.476041342429653, 31.776221151276054 ], [ -106.476131470864701, 31.77616183398592 ], [ -106.476222277394854, 31.776105235917203 ], [ -106.476313207806967, 31.776045880617986 ], [ -106.476404239186309, 31.775986518674024 ], [ -106.476490534701796, 31.775941145891235 ] ] } },
{ "type": "Feature", "properties": { "STREETNAME": "BROWN", "STYPE": "ST", "CLASS": "MINOR" }, "geometry": { "type": "LineString", "coordinates": [ [ -106.483145178578567, 31.772790993686595 ], [ -106.483167964147881, 31.772814695550455 ], [ -106.483237277136482, 31.772891258557927 ], [ -106.483306568992973, 31.772970578370693 ], [ -106.483374878759932, 31.773047189643552 ], [ -106.483442664414966, 31.77312657879293 ], [ -106.483510070978312, 31.773203231799169 ], [ -106.483577353112196, 31.773282646496448 ], [ -106.483645061427424, 31.773359286075177 ], [ -106.483713449367215, 31.773438645716066 ], [ -106.483781529976483, 31.773507009139504 ] ] } },
{ "type": "Feature", "properties": { "STREETNAME": "ARIZONA", "STYPE": "AVE", "CLASS": "MINOR" }, "geometry": { "type": "LineString", "coordinates": [ [ -106.476490534701796, 31.775941145891235 ], [ -106.476585374544001, 31.775870592391776 ], [ -106.476676907529153, 31.775811209259146 ], [ -106.476768718986591, 31.775754562409844 ], [ -106.476859648605355, 31.77569520491982 ], [ -106.476951180196025, 31.775635821640076 ], [ -106.477042411186005, 31.775576451582641 ], [ -106.47713293989284, 31.775517112815603 ], [ -106.477222341164506, 31.77546058124916 ], [ -106.477312868594439, 31.775401242404108 ], [ -106.477403093375827, 31.775341917783692 ], [ -106.477491814971501, 31.77528266589778 ], [ -106.477581037051436, 31.775223388499448 ], [ -106.477682764320633, 31.775169028427214 ] ] } },
{ "type": "Feature", "properties": { "STREETNAME": "BROWN", "STYPE": "ST", "CLASS": "MINOR" }, "geometry": { "type": "LineString", "coordinates": [ [ -106.48058967423556, 31.769886089919765 ], [ -106.480648634757713, 31.769952130908077 ], [ -106.480716638864834, 31.77002875971365 ], [ -106.48078414222303, 31.770105409441776 ], [ -106.480852046353988, 31.77018204200392 ], [ -106.480919549930235, 31.770258691657247 ], [ -106.480988335139713, 31.770338036547464 ], [ -106.481055637608478, 31.770414695640472 ], [ -106.481123742395354, 31.770491317685916 ], [ -106.48119262808089, 31.770570657728324 ], [ -106.481234061613023, 31.770616634479413 ] ] } },
{ "type": "Feature", "properties": { "STREETNAME": "YANDELL", "STYPE": "DR", "CLASS": "MINOR" }, "geometry": { "type": "LineString", "coordinates": [ [ -106.48058967423556, 31.769886089919765 ], [ -106.480704415155074, 31.769822852633727 ], [ -106.480794632523157, 31.769763525533705 ], [ -106.480886459338194, 31.769704122301718 ], [ -106.480978361643565, 31.769647470367651 ], [ -106.48107008704136, 31.769588071785826 ], [ -106.481160281482317, 31.769531499523669 ], [ -106.481252408252772, 31.769472081830195 ], [ -106.481343831847965, 31.769412697299501 ], [ -106.481434730131525, 31.769356092464683 ], [ -106.481525550577942, 31.769296736300653 ], [ -106.48161687276054, 31.769237358157962 ], [ -106.481708574961772, 31.769180715114423 ], [ -106.481810708435177, 31.769112565505861 ] ] } },
{ "type": "Feature", "properties": { "STREETNAME": "YANDELL", "STYPE": "DR", "CLASS": "MINOR" }, "geometry": { "type": "LineString", "coordinates": [ [ -106.47938692503692, 31.770666998064861 ], [ -106.4794309061474, 31.770640140076971 ], [ -106.47952253344981, 31.770580749140596 ], [ -106.479611448382883, 31.770521484485911 ], [ -106.479701947156045, 31.770464899861071 ], [ -106.479793572949404, 31.770405506978793 ], [ -106.479883893801016, 31.770346177493064 ], [ -106.479974492207077, 31.770289585241635 ], [ -106.480065515960447, 31.770230223305855 ], [ -106.480157543897519, 31.770170810234593 ], [ -106.480248543807903, 31.770114202413229 ], [ -106.480339365719644, 31.770054847094137 ], [ -106.480429261741065, 31.769998290395471 ], [ -106.480520485029587, 31.769938915969085 ], [ -106.48058967423556, 31.769886089919765 ] ] } },
{ "type": "Feature", "properties": { "STREETNAME": "ARIZONA", "STYPE": "AVE", "CLASS": "MINOR" }, "geometry": { "type": "LineString", "coordinates": [ [ -106.479166354484121, 31.774215189902321 ], [ -106.47921043767343, 31.774188330897083 ], [ -106.479302269754385, 31.77412892888524 ], [ -106.479393875747888, 31.774072291510759 ], [ -106.479485203793345, 31.774012914073662 ], [ -106.479576531724661, 31.773953536571085 ], [ -106.47966725758468, 31.773894186541565 ], [ -106.479757481690214, 31.773834861956111 ], [ -106.479847782079773, 31.773778285015297 ], [ -106.479937504205466, 31.773718984010532 ], [ -106.480026923572836, 31.773659695436574 ], [ -106.480117826761415, 31.773603092515692 ], [ -106.480208853365781, 31.773543726954724 ], [ -106.480299981225798, 31.773484359248446 ], [ -106.480389801761348, 31.773425051441986 ], [ -106.480475561042468, 31.773371443540746 ] ] } },
{ "type": "Feature", "properties": { "STREETNAME": "BROWN", "STYPE": "ST", "CLASS": "MINOR" }, "geometry": { "type": "LineString", "coordinates": [ [ -106.484424224859211, 31.774233732498359 ], [ -106.484469247363776, 31.774286665304519 ], [ -106.484537336411108, 31.774366041390994 ], [ -106.484604140785876, 31.774442723255191 ], [ -106.484671650415009, 31.774519370835364 ], [ -106.484739260469382, 31.774596016344322 ], [ -106.484808150978125, 31.774675352595239 ], [ -106.484876440753197, 31.774754717220286 ], [ -106.484945457162866, 31.774831293416966 ], [ -106.485014673087846, 31.774907862854814 ], [ -106.485065522318052, 31.774960519026386 ] ] } },
{ "type": "Feature", "properties": { "STREETNAME": "ARIZONA", "STYPE": "AVE", "CLASS": "MINOR" }, "geometry": { "type": "LineString", "coordinates": [ [ -106.483199355275261, 31.771615595882253 ], [ -106.483286873037073, 31.771567408164103 ], [ -106.483376766626947, 31.771510849563672 ], [ -106.483467510249483, 31.771448742635105 ], [ -106.483558231463192, 31.771389392537866 ], [ -106.48364865197486, 31.771330053878266 ], [ -106.483739171574072, 31.771270712270709 ], [ -106.483829892273164, 31.771211359278556 ], [ -106.483920690658607, 31.77115475748289 ], [ -106.484011209804294, 31.771095413881127 ], [ -106.484102733374741, 31.771036022716292 ], [ -106.484193430180284, 31.770979424610843 ], [ -106.484284552975438, 31.770920052255427 ], [ -106.484374646687968, 31.770863483431818 ], [ -106.484465166326828, 31.770804139457884 ], [ -106.484557292381325, 31.770744721256751 ], [ -106.484648791785261, 31.770688083945249 ], [ -106.484739612609573, 31.770628726421027 ], [ -106.484829528866541, 31.770569410700585 ], [ -106.484927174705987, 31.770509732082427 ] ] } },
{ "type": "Feature", "properties": { "STREETNAME": "BROWN", "STYPE": "ST", "CLASS": "MINOR" }, "geometry": { "type": "LineString", "coordinates": [ [ -106.482508827785026, 31.772063964633244 ], [ -106.482555657075636, 31.772116813540865 ], [ -106.482624444937727, 31.77219615660854 ], [ -106.482691349486487, 31.772272833735538 ], [ -106.482759658430879, 31.772349448053596 ], [ -106.482828067391196, 31.772426053997577 ], [ -106.482896075905145, 31.772502678839331 ], [ -106.482963759695096, 31.772582074839743 ], [ -106.483031266621097, 31.772658722425817 ], [ -106.483098974168044, 31.772735364108254 ], [ -106.483145178578567, 31.772790993686595 ] ] } },
{ "type": "Feature", "properties": { "STREETNAME": "BROWN", "STYPE": "ST", "CLASS": "MINOR" }, "geometry": { "type": "LineString", "coordinates": [ [ -106.483781529976483, 31.773507009139504 ], [ -106.483850775538443, 31.773591834426213 ], [ -106.483918080687474, 31.773668494743156 ], [ -106.483985767040707, 31.773747887424705 ], [ -106.484054759725069, 31.773827221017203 ], [ -106.484124776204837, 31.773903750327801 ], [ -106.484195598197388, 31.773980242419544 ], [ -106.484265840909146, 31.774054009639389 ], [ -106.4843346314847, 31.774133349942336 ], [ -106.484424224859211, 31.774233732498359 ] ] } },
{ "type": "Feature", "properties": { "STREETNAME": "ARIZONA", "STYPE": "AVE", "CLASS": "MINOR" }, "geometry": { "type": "LineString", "coordinates": [ [ -106.480475561042468, 31.773371443540746 ], [ -106.480570325654739, 31.773309150643932 ], [ -106.480658739678688, 31.773249909098116 ], [ -106.480748862296934, 31.773190586742043 ], [ -106.480838583188898, 31.773131283301755 ], [ -106.480928403171276, 31.773071976916576 ], [ -106.481020108312379, 31.773015332691823 ], [ -106.481112515434731, 31.772958656123439 ], [ -106.481204824298743, 31.772901982320288 ], [ -106.481302073198663, 31.772842325455709 ] ] } },
{ "type": "Feature", "properties": { "STREETNAME": "ARIZONA", "STYPE": "AVE", "CLASS": "MINOR" }, "geometry": { "type": "LineString", "coordinates": [ [ -106.48867743232509, 31.768094014077601 ], [ -106.489088230941206, 31.767824037930627 ], [ -106.489204984145374, 31.767746932670512 ], [ -106.489532703995579, 31.767546959419541 ] ] } },
{ "type": "Feature", "properties": { "STREETNAME": "CLIFF", "STYPE": "DR", "CLASS": "MINOR" }, "geometry": { "type": "LineString", "coordinates": [ [ -106.488247571516652, 31.772910336070932 ], [ -106.488068478727428, 31.77301241642029 ], [ -106.487890066240126, 31.773117216547625 ], [ -106.487712354512269, 31.773221985963747 ], [ -106.487464843793703, 31.773368597539694 ] ] } },
{ "type": "Feature", "properties": { "STREETNAME": "RIO GRANDE", "STYPE": "AVE", "CLASS": "MINOR" }, "geometry": { "type": "LineString", "coordinates": [ [ -106.486340667933547, 31.768457859940582 ], [ -106.486237479653312, 31.768520557826058 ], [ -106.486146586200405, 31.768577167783171 ], [ -106.486054763762311, 31.768636574750793 ], [ -106.485964347198902, 31.768695913342658 ], [ -106.485873855009871, 31.768752504110161 ], [ -106.485782736339957, 31.768811877578205 ], [ -106.485690614037736, 31.768871297541917 ], [ -106.485598914508515, 31.768927943396609 ], [ -106.485489710627348, 31.769001935893669 ] ] } },
{ "type": "Feature", "properties": { "STREETNAME": "CALIFORNIA", "STYPE": "AVE", "CLASS": "LOCAL" }, "geometry": { "type": "LineString", "coordinates": [ [ -106.486203382522234, 31.771955340095882 ], [ -106.485357815319261, 31.772499157070424 ], [ -106.484477537459128, 31.773063882144424 ] ] } },
{ "type": "Feature", "properties": { "STREETNAME": "LANGTRY", "STYPE": "ST", "CLASS": "LOCAL" }, "geometry": { "type": "LineString", "coordinates": [ [ -106.47494478973158, 31.76784951652785 ], [ -106.475111489137419, 31.768070068269775 ], [ -106.475225885246928, 31.768202323055338 ] ] } },
{ "type": "Feature", "properties": { "STREETNAME": "RIO GRANDE", "STYPE": "AVE", "CLASS": "MINOR" }, "geometry": { "type": "LineString", "coordinates": [ [ -106.479303618098101, 31.77298293592402 ], [ -106.479243611074594, 31.773022191212032 ], [ -106.479152283772009, 31.773081567602286 ], [ -106.47905997555938, 31.773138238946274 ], [ -106.478968145163577, 31.773197638059042 ], [ -106.478876940320092, 31.773254256229823 ], [ -106.478787621811108, 31.77331353924291 ], [ -106.478696214243442, 31.77337016504481 ], [ -106.478605288054851, 31.77342952477192 ], [ -106.478515790372015, 31.773486061113239 ], [ -106.478423557858761, 31.773545481507664 ], [ -106.478331827982885, 31.773604877182766 ], [ -106.478243944108414, 31.773672351381247 ] ] } },
{ "type": "Feature", "properties": { "STREETNAME": "CIRCLE", "STYPE": "DR", "CLASS": "LOCAL" }, "geometry": { "type": "LineString", "coordinates": [ [ -106.483489862828947, 31.774842301959666 ], [ -106.483677966751301, 31.775056413955866 ], [ -106.483777314702678, 31.775178360772085 ], [ -106.483801902647244, 31.775226753672804 ] ] } }
]
}
